<kml xmlns="http://www.opengis.net/kml/2.2" xmlns:atom="http://www.w3.org/2005/Atom" xmlns:gx="http://www.google.com/kml/ext/2.2">
  <Document>
    <Style id="QueryArea">
      <LineStyle>
        <color>ffc0c000</color>
        <width>3</width>
      </LineStyle>
      <PolyStyle>
        <color>80ffffaa</color>
      </PolyStyle>
    </Style>
    <Style id="F3548v21Accepted">
      <LineStyle>
        <color>ff00c000</color>
        <width>3</width>
      </LineStyle>
      <PolyStyle>
        <color>80c0c0c0</color>
      </PolyStyle>
    </Style>
    <Style id="F3548v21Activated">
      <LineStyle>
        <color>ff00c000</color>
        <width>3</width>
      </LineStyle>
      <PolyStyle>
        <color>8000ff00</color>
      </PolyStyle>
    </Style>
    <Style id="F3548v21Nonconforming">
      <LineStyle>
        <color>ff00ffff</color>
        <width>5</width>
      </LineStyle>
      <PolyStyle>
        <color>8000ffff</color>
      </PolyStyle>
    </Style>
    <Style id="F3548v21Contingent">
      <LineStyle>
        <color>ff0000ff</color>
        <width>5</width>
      </LineStyle>
      <PolyStyle>
        <color>80ff0000ff</color>
      </PolyStyle>
    </Style>
    <Style id="F3548v21AcceptedFuture">
      <LineStyle>
        <color>80c0c0c0</color>
        <width>1</width>
      </LineStyle>
      <PolyStyle>
        <color>00000000</color>
      </PolyStyle>
    </Style>
    <Style id="F3548v21ActivatedFuture">
      <LineStyle>
        <color>8040c040</color>
        <width>1</width>
      </LineStyle>
      <PolyStyle>
        <color>00000000</color>
      </PolyStyle>
    </Style>
    <Style id="F3548v21NonconformingFuture">
      <LineStyle>
        <color>8000ffff</color>
        <width>1</width>
      </LineStyle>
      <PolyStyle>
        <color>00000000</color>
      </PolyStyle>
    </Style>
    <Style id="F3548v21ContingentFuture">
      <LineStyle>
        <color>80ff0000ff</color>
        <width>1</width>
      </LineStyle>
      <PolyStyle>
        <color>00000000</color>
      </PolyStyle>
    </Style>
    <Style id="Planned_Nominal">
      <LineStyle>
        <color>ff00c000</color>
        <width>3</width>
      </LineStyle>
      <PolyStyle>
        <color>80808080</color>
      </PolyStyle>
    </Style>
    <Style id="InUse_Nominal">
      <LineStyle>
        <color>ff00c000</color>
        <width>3</width>
      </LineStyle>
      <PolyStyle>
        <color>8000ff00</color>
      </PolyStyle>
    </Style>
    <Style id="InUse_OffNominal">
      <LineStyle>
        <color>ff00ffff</color>
        <width>5</width>
      </LineStyle>
      <PolyStyle>
        <color>8000ff00</color>
      </PolyStyle>
    </Style>
    <Style id="InUse_Contingent">
      <LineStyle>
        <color>ff0000ff</color>
        <width>5</width>
      </LineStyle>
      <PolyStyle>
        <color>8000ff00</color>
      </PolyStyle>
    </Style>
    <Folder>
      <name>Validation of operational intents</name>
      <Folder>
        <name>Attempt to plan invalid flights</name>
        <Folder>
          <name>Attempt to plan Too Far Away Flight</name>
          <Folder>
            <name>E2: uss1_dss astm.f3548.v21.dss.queryOperationalIntentReferences</name>
            <Placemark>
              <name>area_of_interest</name>
              <styleUrl>#QueryArea</styleUrl>
              <description><![CDATA[(no operational intent references found)]]></description>
              <TimeSpan>
                <begin>2025-12-21T07:28:13.545676+00:00</begin>
                <end>2025-12-21T08:13:13.545676+00:00</end>
              </TimeSpan>
              <MultiGeometry>
                <Polygon>
                  <altitudeMode>absolute</altitudeMode>
                  <outerBoundaryIs>
                    <LinearRing>
                      <coordinates>8.504800000000001,47.3778,607.7310470028876 8.504800000000001,47.37822,607.7310470028876 8.5054,47.37822,607.7310470028876 8.5054,47.3778,607.7310470028876</coordinates>
                    </LinearRing>
                  </outerBoundaryIs>
                </Polygon>
                <Polygon>
                  <altitudeMode>absolute</altitudeMode>
                  <outerBoundaryIs>
                    <LinearRing>
                      <coordinates>8.504800000000001,47.3778,637.7310470028876 8.504800000000001,47.37822,637.7310470028876 8.5054,47.37822,637.7310470028876 8.5054,47.3778,637.7310470028876</coordinates>
                    </LinearRing>
                  </outerBoundaryIs>
                </Polygon>
                <Polygon>
                  <altitudeMode>absolute</altitudeMode>
                  <outerBoundaryIs>
                    <LinearRing>
                      <coordinates>8.504800000000001,47.3778,607.7310470028876 8.504800000000001,47.3778,637.7310470028876 8.504800000000001,47.37822,637.7310470028876 8.504800000000001,47.37822,607.7310470028876</coordinates>
                    </LinearRing>
                  </outerBoundaryIs>
                </Polygon>
                <Polygon>
                  <altitudeMode>absolute</altitudeMode>
                  <outerBoundaryIs>
                    <LinearRing>
                      <coordinates>8.504800000000001,47.37822,607.7310470028876 8.504800000000001,47.37822,637.7310470028876 8.5054,47.37822,637.7310470028876 8.5054,47.37822,607.7310470028876</coordinates>
                    </LinearRing>
                  </outerBoundaryIs>
                </Polygon>
                <Polygon>
                  <altitudeMode>absolute</altitudeMode>
                  <outerBoundaryIs>
                    <LinearRing>
                      <coordinates>8.5054,47.37822,607.7310470028876 8.5054,47.37822,637.7310470028876 8.5054,47.3778,637.7310470028876 8.5054,47.3778,607.7310470028876</coordinates>
                    </LinearRing>
                  </outerBoundaryIs>
                </Polygon>
                <Polygon>
                  <altitudeMode>absolute</altitudeMode>
                  <outerBoundaryIs>
                    <LinearRing>
                      <coordinates>8.5054,47.3778,607.7310470028876 8.5054,47.3778,637.7310470028876 8.504800000000001,47.3778,637.7310470028876 8.504800000000001,47.3778,607.7310470028876</coordinates>
                    </LinearRing>
                  </outerBoundaryIs>
                </Polygon>
              </MultiGeometry>
            </Placemark>
          </Folder>
          <Folder>
            <name>E4: uss2_core interuss.automated_testing.flight_planning.v1.UpsertFlightPlan</name>
            <Folder>
              <name>Activity Rejected, flight NotPlanned</name>
              <Placemark>
                <name>Volume 0</name>
                <styleUrl>#Planned_Nominal</styleUrl>
                <TimeSpan>
                  <begin>2025-12-21T07:28:13.545676+00:00</begin>
                  <end>2025-12-21T08:13:13.545676+00:00</end>
                </TimeSpan>
                <MultiGeometry>
                  <Polygon>
                    <altitudeMode>absolute</altitudeMode>
                    <outerBoundaryIs>
                      <LinearRing>
                        <coordinates>8.5051,47.3778,607.7310290350193 8.504800000000001,47.37822,607.7310290350193 8.5054,47.37822,607.7310290350193</coordinates>
                      </LinearRing>
                    </outerBoundaryIs>
                  </Polygon>
                  <Polygon>
                    <altitudeMode>absolute</altitudeMode>
                    <outerBoundaryIs>
                      <LinearRing>
                        <coordinates>8.5051,47.3778,637.7310290350193 8.504800000000001,47.37822,637.7310290350193 8.5054,47.37822,637.7310290350193</coordinates>
                      </LinearRing>
                    </outerBoundaryIs>
                  </Polygon>
                  <Polygon>
                    <altitudeMode>absolute</altitudeMode>
                    <outerBoundaryIs>
                      <LinearRing>
                        <coordinates>8.5051,47.3778,607.7310290350193 8.5051,47.3778,637.7310290350193 8.504800000000001,47.37822,637.7310290350193 8.504800000000001,47.37822,607.7310290350193</coordinates>
                      </LinearRing>
                    </outerBoundaryIs>
                  </Polygon>
                  <Polygon>
                    <altitudeMode>absolute</altitudeMode>
                    <outerBoundaryIs>
                      <LinearRing>
                        <coordinates>8.504800000000001,47.37822,607.7310290350193 8.504800000000001,47.37822,637.7310290350193 8.5054,47.37822,637.7310290350193 8.5054,47.37822,607.7310290350193</coordinates>
                      </LinearRing>
                    </outerBoundaryIs>
                  </Polygon>
                  <Polygon>
                    <altitudeMode>absolute</altitudeMode>
                    <outerBoundaryIs>
                      <LinearRing>
                        <coordinates>8.5054,47.37822,607.7310290350193 8.5054,47.37822,637.7310290350193 8.5051,47.3778,637.7310290350193 8.5051,47.3778,607.7310290350193</coordinates>
                      </LinearRing>
                    </outerBoundaryIs>
                  </Polygon>
                </MultiGeometry>
              </Placemark>
            </Folder>
          </Folder>
          <Folder>
            <name>E7: uss1_dss astm.f3548.v21.dss.queryOperationalIntentReferences</name>
            <Placemark>
              <name>area_of_interest</name>
              <styleUrl>#QueryArea</styleUrl>
              <description><![CDATA[(no operational intent references found)]]></description>
              <TimeSpan>
                <begin>2025-12-21T07:28:13.545676+00:00</begin>
                <end>2025-12-21T08:13:13.545676+00:00</end>
              </TimeSpan>
              <MultiGeometry>
                <Polygon>
                  <altitudeMode>absolute</altitudeMode>
                  <outerBoundaryIs>
                    <LinearRing>
                      <coordinates>8.504800000000001,47.3778,607.7310470028876 8.504800000000001,47.37822,607.7310470028876 8.5054,47.37822,607.7310470028876 8.5054,47.3778,607.7310470028876</coordinates>
                    </LinearRing>
                  </outerBoundaryIs>
                </Polygon>
                <Polygon>
                  <altitudeMode>absolute</altitudeMode>
                  <outerBoundaryIs>
                    <LinearRing>
                      <coordinates>8.504800000000001,47.3778,637.7310470028876 8.504800000000001,47.37822,637.7310470028876 8.5054,47.37822,637.7310470028876 8.5054,47.3778,637.7310470028876</coordinates>
                    </LinearRing>
                  </outerBoundaryIs>
                </Polygon>
                <Polygon>
                  <altitudeMode>absolute</altitudeMode>
                  <outerBoundaryIs>
                    <LinearRing>
                      <coordinates>8.504800000000001,47.3778,607.7310470028876 8.504800000000001,47.3778,637.7310470028876 8.504800000000001,47.37822,637.7310470028876 8.504800000000001,47.37822,607.7310470028876</coordinates>
                    </LinearRing>
                  </outerBoundaryIs>
                </Polygon>
                <Polygon>
                  <altitudeMode>absolute</altitudeMode>
                  <outerBoundaryIs>
                    <LinearRing>
                      <coordinates>8.504800000000001,47.37822,607.7310470028876 8.504800000000001,47.37822,637.7310470028876 8.5054,47.37822,637.7310470028876 8.5054,47.37822,607.7310470028876</coordinates>
                    </LinearRing>
                  </outerBoundaryIs>
                </Polygon>
                <Polygon>
                  <altitudeMode>absolute</altitudeMode>
                  <outerBoundaryIs>
                    <LinearRing>
                      <coordinates>8.5054,47.37822,607.7310470028876 8.5054,47.37822,637.7310470028876 8.5054,47.3778,637.7310470028876 8.5054,47.3778,607.7310470028876</coordinates>
                    </LinearRing>
                  </outerBoundaryIs>
                </Polygon>
                <Polygon>
                  <altitudeMode>absolute</altitudeMode>
                  <outerBoundaryIs>
                    <LinearRing>
                      <coordinates>8.5054,47.3778,607.7310470028876 8.5054,47.3778,637.7310470028876 8.504800000000001,47.3778,637.7310470028876 8.504800000000001,47.3778,607.7310470028876</coordinates>
                    </LinearRing>
                  </outerBoundaryIs>
                </Polygon>
              </MultiGeometry>
            </Placemark>
          </Folder>
        </Folder>
        <Folder>
          <name>Attempt to plan Recently Ended Flight</name>
          <Folder>
            <name>E10: uss1_dss astm.f3548.v21.dss.queryOperationalIntentReferences</name>
            <Placemark>
              <name>area_of_interest</name>
              <styleUrl>#QueryArea</styleUrl>
              <description><![CDATA[(no operational intent references found)]]></description>
              <TimeSpan>
                <begin>2025-11-19T07:27:14.945988+00:00</begin>
                <end>2025-11-19T07:28:09.945988+00:00</end>
              </TimeSpan>
              <MultiGeometry>
                <Polygon>
                  <altitudeMode>absolute</altitudeMode>
                  <outerBoundaryIs>
                    <LinearRing>
                      <coordinates>8.504800000000001,47.3778,607.7310470028876 8.504800000000001,47.37822,607.7310470028876 8.5054,47.37822,607.7310470028876 8.5054,47.3778,607.7310470028876</coordinates>
                    </LinearRing>
                  </outerBoundaryIs>
                </Polygon>
                <Polygon>
                  <altitudeMode>absolute</altitudeMode>
                  <outerBoundaryIs>
                    <LinearRing>
                      <coordinates>8.504800000000001,47.3778,637.7310470028876 8.504800000000001,47.37822,637.7310470028876 8.5054,47.37822,637.7310470028876 8.5054,47.3778,637.7310470028876</coordinates>
                    </LinearRing>
                  </outerBoundaryIs>
                </Polygon>
                <Polygon>
                  <altitudeMode>absolute</altitudeMode>
                  <outerBoundaryIs>
                    <LinearRing>
                      <coordinates>8.504800000000001,47.3778,607.7310470028876 8.504800000000001,47.3778,637.7310470028876 8.504800000000001,47.37822,637.7310470028876 8.504800000000001,47.37822,607.7310470028876</coordinates>
                    </LinearRing>
                  </outerBoundaryIs>
                </Polygon>
                <Polygon>
                  <altitudeMode>absolute</altitudeMode>
                  <outerBoundaryIs>
                    <LinearRing>
                      <coordinates>8.504800000000001,47.37822,607.7310470028876 8.504800000000001,47.37822,637.7310470028876 8.5054,47.37822,637.7310470028876 8.5054,47.37822,607.7310470028876</coordinates>
                    </LinearRing>
                  </outerBoundaryIs>
                </Polygon>
                <Polygon>
                  <altitudeMode>absolute</altitudeMode>
                  <outerBoundaryIs>
                    <LinearRing>
                      <coordinates>8.5054,47.37822,607.7310470028876 8.5054,47.37822,637.7310470028876 8.5054,47.3778,637.7310470028876 8.5054,47.3778,607.7310470028876</coordinates>
                    </LinearRing>
                  </outerBoundaryIs>
                </Polygon>
                <Polygon>
                  <altitudeMode>absolute</altitudeMode>
                  <outerBoundaryIs>
                    <LinearRing>
                      <coordinates>8.5054,47.3778,607.7310470028876 8.5054,47.3778,637.7310470028876 8.504800000000001,47.3778,637.7310470028876 8.504800000000001,47.3778,607.7310470028876</coordinates>
                    </LinearRing>
                  </outerBoundaryIs>
                </Polygon>
              </MultiGeometry>
            </Placemark>
          </Folder>
          <Folder>
            <name>E12: uss2_core interuss.automated_testing.flight_planning.v1.UpsertFlightPlan</name>
            <Folder>
              <name>Activity Rejected, flight NotPlanned</name>
              <Placemark>
                <name>Volume 0</name>
                <styleUrl>#Planned_Nominal</styleUrl>
                <TimeSpan>
                  <begin>2025-11-19T07:27:14.945988+00:00</begin>
                  <end>2025-11-19T07:28:09.945988+00:00</end>
                </TimeSpan>
                <MultiGeometry>
                  <Polygon>
                    <altitudeMode>absolute</altitudeMode>
                    <outerBoundaryIs>
                      <LinearRing>
                        <coordinates>8.5051,47.3778,607.7310290350193 8.504800000000001,47.37822,607.7310290350193 8.5054,47.37822,607.7310290350193</coordinates>
                      </LinearRing>
                    </outerBoundaryIs>
                  </Polygon>
                  <Polygon>
                    <altitudeMode>absolute</altitudeMode>
                    <outerBoundaryIs>
                      <LinearRing>
                        <coordinates>8.5051,47.3778,637.7310290350193 8.504800000000001,47.37822,637.7310290350193 8.5054,47.37822,637.7310290350193</coordinates>
                      </LinearRing>
                    </outerBoundaryIs>
                  </Polygon>
                  <Polygon>
                    <altitudeMode>absolute</altitudeMode>
                    <outerBoundaryIs>
                      <LinearRing>
                        <coordinates>8.5051,47.3778,607.7310290350193 8.5051,47.3778,637.7310290350193 8.504800000000001,47.37822,637.7310290350193 8.504800000000001,47.37822,607.7310290350193</coordinates>
                      </LinearRing>
                    </outerBoundaryIs>
                  </Polygon>
                  <Polygon>
                    <altitudeMode>absolute</altitudeMode>
                    <outerBoundaryIs>
                      <LinearRing>
                        <coordinates>8.504800000000001,47.37822,607.7310290350193 8.504800000000001,47.37822,637.7310290350193 8.5054,47.37822,637.7310290350193 8.5054,47.37822,607.7310290350193</coordinates>
                      </LinearRing>
                    </outerBoundaryIs>
                  </Polygon>
                  <Polygon>
                    <altitudeMode>absolute</altitudeMode>
                    <outerBoundaryIs>
                      <LinearRing>
                        <coordinates>8.5054,47.37822,607.7310290350193 8.5054,47.37822,637.7310290350193 8.5051,47.3778,637.7310290350193 8.5051,47.3778,607.7310290350193</coordinates>
                      </LinearRing>
                    </outerBoundaryIs>
                  </Polygon>
                </MultiGeometry>
              </Placemark>
            </Folder>
          </Folder>
          <Folder>
            <name>E15: uss1_dss astm.f3548.v21.dss.queryOperationalIntentReferences</name>
            <Placemark>
              <name>area_of_interest</name>
              <styleUrl>#QueryArea</styleUrl>
              <description><![CDATA[(no operational intent references found)]]></description>
              <TimeSpan>
                <begin>2025-11-19T07:27:14.945988+00:00</begin>
                <end>2025-11-19T07:28:09.945988+00:00</end>
              </TimeSpan>
              <MultiGeometry>
                <Polygon>
                  <altitudeMode>absolute</altitudeMode>
                  <outerBoundaryIs>
                    <LinearRing>
                      <coordinates>8.504800000000001,47.3778,607.7310470028876 8.504800000000001,47.37822,607.7310470028876 8.5054,47.37822,607.7310470028876 8.5054,47.3778,607.7310470028876</coordinates>
                    </LinearRing>
                  </outerBoundaryIs>
                </Polygon>
                <Polygon>
                  <altitudeMode>absolute</altitudeMode>
                  <outerBoundaryIs>
                    <LinearRing>
                      <coordinates>8.504800000000001,47.3778,637.7310470028876 8.504800000000001,47.37822,637.7310470028876 8.5054,47.37822,637.7310470028876 8.5054,47.3778,637.7310470028876</coordinates>
                    </LinearRing>
                  </outerBoundaryIs>
                </Polygon>
                <Polygon>
                  <altitudeMode>absolute</altitudeMode>
                  <outerBoundaryIs>
                    <LinearRing>
                      <coordinates>8.504800000000001,47.3778,607.7310470028876 8.504800000000001,47.3778,637.7310470028876 8.504800000000001,47.37822,637.7310470028876 8.504800000000001,47.37822,607.7310470028876</coordinates>
                    </LinearRing>
                  </outerBoundaryIs>
                </Polygon>
                <Polygon>
                  <altitudeMode>absolute</altitudeMode>
                  <outerBoundaryIs>
                    <LinearRing>
                      <coordinates>8.504800000000001,47.37822,607.7310470028876 8.504800000000001,47.37822,637.7310470028876 8.5054,47.37822,637.7310470028876 8.5054,47.37822,607.7310470028876</coordinates>
                    </LinearRing>
                  </outerBoundaryIs>
                </Polygon>
                <Polygon>
                  <altitudeMode>absolute</altitudeMode>
                  <outerBoundaryIs>
                    <LinearRing>
                      <coordinates>8.5054,47.37822,607.7310470028876 8.5054,47.37822,637.7310470028876 8.5054,47.3778,637.7310470028876 8.5054,47.3778,607.7310470028876</coordinates>
                    </LinearRing>
                  </outerBoundaryIs>
                </Polygon>
                <Polygon>
                  <altitudeMode>absolute</altitudeMode>
                  <outerBoundaryIs>
                    <LinearRing>
                      <coordinates>8.5054,47.3778,607.7310470028876 8.5054,47.3778,637.7310470028876 8.504800000000001,47.3778,637.7310470028876 8.504800000000001,47.3778,607.7310470028876</coordinates>
                    </LinearRing>
                  </outerBoundaryIs>
                </Polygon>
              </MultiGeometry>
            </Placemark>
          </Folder>
        </Folder>
      </Folder>
      <Folder>
        <name>Validate transition to Ended state after cancellation</name>
        <Folder>
          <name>Plan Valid Flight</name>
          <Folder>
            <name>E18: uss1_dss astm.f3548.v21.dss.queryOperationalIntentReferences</name>
            <Placemark>
              <name>area_of_interest</name>
              <styleUrl>#QueryArea</styleUrl>
              <description><![CDATA[(no operational intent references found)]]></description>
              <TimeSpan>
                <begin>2025-11-19T07:28:12.545676+00:00</begin>
                <end>2025-11-19T08:13:12.545676+00:00</end>
              </TimeSpan>
              <MultiGeometry>
                <Polygon>
                  <altitudeMode>absolute</altitudeMode>
                  <outerBoundaryIs>
                    <LinearRing>
                      <coordinates>8.504800000000001,47.3778,607.7310470028876 8.504800000000001,47.37822,607.7310470028876 8.5054,47.37822,607.7310470028876 8.5054,47.3778,607.7310470028876</coordinates>
                    </LinearRing>
                  </outerBoundaryIs>
                </Polygon>
                <Polygon>
                  <altitudeMode>absolute</altitudeMode>
                  <outerBoundaryIs>
                    <LinearRing>
                      <coordinates>8.504800000000001,47.3778,637.7310470028876 8.504800000000001,47.37822,637.7310470028876 8.5054,47.37822,637.7310470028876 8.5054,47.3778,637.7310470028876</coordinates>
                    </LinearRing>
                  </outerBoundaryIs>
                </Polygon>
                <Polygon>
                  <altitudeMode>absolute</altitudeMode>
                  <outerBoundaryIs>
                    <LinearRing>
                      <coordinates>8.504800000000001,47.3778,607.7310470028876 8.504800000000001,47.3778,637.7310470028876 8.504800000000001,47.37822,637.7310470028876 8.504800000000001,47.37822,607.7310470028876</coordinates>
                    </LinearRing>
                  </outerBoundaryIs>
                </Polygon>
                <Polygon>
                  <altitudeMode>absolute</altitudeMode>
                  <outerBoundaryIs>
                    <LinearRing>
                      <coordinates>8.504800000000001,47.37822,607.7310470028876 8.504800000000001,47.37822,637.7310470028876 8.5054,47.37822,637.7310470028876 8.5054,47.37822,607.7310470028876</coordinates>
                    </LinearRing>
                  </outerBoundaryIs>
                </Polygon>
                <Polygon>
                  <altitudeMode>absolute</altitudeMode>
                  <outerBoundaryIs>
                    <LinearRing>
                      <coordinates>8.5054,47.37822,607.7310470028876 8.5054,47.37822,637.7310470028876 8.5054,47.3778,637.7310470028876 8.5054,47.3778,607.7310470028876</coordinates>
                    </LinearRing>
                  </outerBoundaryIs>
                </Polygon>
                <Polygon>
                  <altitudeMode>absolute</altitudeMode>
                  <outerBoundaryIs>
                    <LinearRing>
                      <coordinates>8.5054,47.3778,607.7310470028876 8.5054,47.3778,637.7310470028876 8.504800000000001,47.3778,637.7310470028876 8.504800000000001,47.3778,607.7310470028876</coordinates>
                    </LinearRing>
                  </outerBoundaryIs>
                </Polygon>
              </MultiGeometry>
            </Placemark>
          </Folder>
          <Folder>
            <name>E20: uss2_core interuss.automated_testing.flight_planning.v1.UpsertFlightPlan</name>
            <Folder>
              <name>Activity Completed, flight Planned</name>
              <Placemark>
                <name>Volume 0</name>
                <styleUrl>#Planned_Nominal</styleUrl>
                <TimeSpan>
                  <begin>2025-11-19T07:28:12.545676+00:00</begin>
                  <end>2025-11-19T08:13:12.545676+00:00</end>
                </TimeSpan>
                <MultiGeometry>
                  <Polygon>
                    <altitudeMode>absolute</altitudeMode>
                    <outerBoundaryIs>
                      <LinearRing>
                        <coordinates>8.5051,47.3778,607.7310290350193 8.504800000000001,47.37822,607.7310290350193 8.5054,47.37822,607.7310290350193</coordinates>
                      </LinearRing>
                    </outerBoundaryIs>
                  </Polygon>
                  <Polygon>
                    <altitudeMode>absolute</altitudeMode>
                    <outerBoundaryIs>
                      <LinearRing>
                        <coordinates>8.5051,47.3778,637.7310290350193 8.504800000000001,47.37822,637.7310290350193 8.5054,47.37822,637.7310290350193</coordinates>
                      </LinearRing>
                    </outerBoundaryIs>
                  </Polygon>
                  <Polygon>
                    <altitudeMode>absolute</altitudeMode>
                    <outerBoundaryIs>
                      <LinearRing>
                        <coordinates>8.5051,47.3778,607.7310290350193 8.5051,47.3778,637.7310290350193 8.504800000000001,47.37822,637.7310290350193 8.504800000000001,47.37822,607.7310290350193</coordinates>
                      </LinearRing>
                    </outerBoundaryIs>
                  </Polygon>
                  <Polygon>
                    <altitudeMode>absolute</altitudeMode>
                    <outerBoundaryIs>
                      <LinearRing>
                        <coordinates>8.504800000000001,47.37822,607.7310290350193 8.504800000000001,47.37822,637.7310290350193 8.5054,47.37822,637.7310290350193 8.5054,47.37822,607.7310290350193</coordinates>
                      </LinearRing>
                    </outerBoundaryIs>
                  </Polygon>
                  <Polygon>
                    <altitudeMode>absolute</altitudeMode>
                    <outerBoundaryIs>
                      <LinearRing>
                        <coordinates>8.5054,47.37822,607.7310290350193 8.5054,47.37822,637.7310290350193 8.5051,47.3778,637.7310290350193 8.5051,47.3778,607.7310290350193</coordinates>
                      </LinearRing>
                    </outerBoundaryIs>
                  </Polygon>
                </MultiGeometry>
              </Placemark>
            </Folder>
          </Folder>
          <Folder>
            <name>E23: uss1_dss astm.f3548.v21.dss.queryOperationalIntentReferences</name>
            <Placemark>
              <name>area_of_interest</name>
              <styleUrl>#QueryArea</styleUrl>
              <description><![CDATA[<ul><li>fake_uss's Accepted f3f05fa6-08cb-41be-88c1-8f7c7e02d574[1]</li></ul>]]></description>
              <TimeSpan>
                <begin>2025-11-19T07:28:12.545676+00:00</begin>
                <end>2025-11-19T08:13:12.545676+00:00</end>
              </TimeSpan>
              <MultiGeometry>
                <Polygon>
                  <altitudeMode>absolute</altitudeMode>
                  <outerBoundaryIs>
                    <LinearRing>
                      <coordinates>8.504800000000001,47.3778,607.7310470028876 8.504800000000001,47.37822,607.7310470028876 8.5054,47.37822,607.7310470028876 8.5054,47.3778,607.7310470028876</coordinates>
                    </LinearRing>
                  </outerBoundaryIs>
                </Polygon>
                <Polygon>
                  <altitudeMode>absolute</altitudeMode>
                  <outerBoundaryIs>
                    <LinearRing>
                      <coordinates>8.504800000000001,47.3778,637.7310470028876 8.504800000000001,47.37822,637.7310470028876 8.5054,47.37822,637.7310470028876 8.5054,47.3778,637.7310470028876</coordinates>
                    </LinearRing>
                  </outerBoundaryIs>
                </Polygon>
                <Polygon>
                  <altitudeMode>absolute</altitudeMode>
                  <outerBoundaryIs>
                    <LinearRing>
                      <coordinates>8.504800000000001,47.3778,607.7310470028876 8.504800000000001,47.3778,637.7310470028876 8.504800000000001,47.37822,637.7310470028876 8.504800000000001,47.37822,607.7310470028876</coordinates>
                    </LinearRing>
                  </outerBoundaryIs>
                </Polygon>
                <Polygon>
                  <altitudeMode>absolute</altitudeMode>
                  <outerBoundaryIs>
                    <LinearRing>
                      <coordinates>8.504800000000001,47.37822,607.7310470028876 8.504800000000001,47.37822,637.7310470028876 8.5054,47.37822,637.7310470028876 8.5054,47.37822,607.7310470028876</coordinates>
                    </LinearRing>
                  </outerBoundaryIs>
                </Polygon>
                <Polygon>
                  <altitudeMode>absolute</altitudeMode>
                  <outerBoundaryIs>
                    <LinearRing>
                      <coordinates>8.5054,47.37822,607.7310470028876 8.5054,47.37822,637.7310470028876 8.5054,47.3778,637.7310470028876 8.5054,47.3778,607.7310470028876</coordinates>
                    </LinearRing>
                  </outerBoundaryIs>
                </Polygon>
                <Polygon>
                  <altitudeMode>absolute</altitudeMode>
                  <outerBoundaryIs>
                    <LinearRing>
                      <coordinates>8.5054,47.3778,607.7310470028876 8.5054,47.3778,637.7310470028876 8.504800000000001,47.3778,637.7310470028876 8.504800000000001,47.3778,607.7310470028876</coordinates>
                    </LinearRing>
                  </outerBoundaryIs>
                </Polygon>
              </MultiGeometry>
            </Placemark>
          </Folder>
          <Folder>
            <name>E27: uss2_core astm.f3548.v21.uss.getOperationalIntentDetails</name>
            <Folder>
              <name>fake_uss's P0 Accepted f3f05fa6-08cb-41be-88c1-8f7c7e02d574[1] @ P.7hrQB0kp6uDKkRpSIsxO6N40YYYMkX6lsFGzutpAA_</name>
              <Placemark>
                <name>Nominal volume 0</name>
                <styleUrl>#F3548v21Accepted</styleUrl>
                <TimeSpan>
                  <begin>2025-11-19T07:28:12+00:00</begin>
                  <end>2025-11-19T08:13:22+00:00</end>
                </TimeSpan>
                <MultiGeometry>
                  <Polygon>
                    <altitudeMode>absolute</altitudeMode>
                    <outerBoundaryIs>
                      <LinearRing>
                        <coordinates>8.5048,47.3778,-47.26895299711235 8.5054,47.3778,-47.26895299711235 8.5054,47.37822,-47.26895299711235 8.5048,47.37822,-47.26895299711235</coordinates>
                      </LinearRing>
                    </outerBoundaryIs>
                  </Polygon>
                  <Polygon>
                    <altitudeMode>absolute</altitudeMode>
                    <outerBoundaryIs>
                      <LinearRing>
                        <coordinates>8.5048,47.3778,637.7310470028876 8.5054,47.3778,637.7310470028876 8.5054,47.37822,637.7310470028876 8.5048,47.37822,637.7310470028876</coordinates>
                      </LinearRing>
                    </outerBoundaryIs>
                  </Polygon>
                  <Polygon>
                    <altitudeMode>absolute</altitudeMode>
                    <outerBoundaryIs>
                      <LinearRing>
                        <coordinates>8.5048,47.3778,-47.26895299711235 8.5048,47.3778,637.7310470028876 8.5054,47.3778,637.7310470028876 8.5054,47.3778,-47.26895299711235</coordinates>
                      </LinearRing>
                    </outerBoundaryIs>
                  </Polygon>
                  <Polygon>
                    <altitudeMode>absolute</altitudeMode>
                    <outerBoundaryIs>
                      <LinearRing>
                        <coordinates>8.5054,47.3778,-47.26895299711235 8.5054,47.3778,637.7310470028876 8.5054,47.37822,637.7310470028876 8.5054,47.37822,-47.26895299711235</coordinates>
                      </LinearRing>
                    </outerBoundaryIs>
                  </Polygon>
                  <Polygon>
                    <altitudeMode>absolute</altitudeMode>
                    <outerBoundaryIs>
                      <LinearRing>
                        <coordinates>8.5054,47.37822,-47.26895299711235 8.5054,47.37822,637.7310470028876 8.5048,47.37822,637.7310470028876 8.5048,47.37822,-47.26895299711235</coordinates>
                      </LinearRing>
                    </outerBoundaryIs>
                  </Polygon>
                  <Polygon>
                    <altitudeMode>absolute</altitudeMode>
                    <outerBoundaryIs>
                      <LinearRing>
                        <coordinates>8.5048,47.37822,-47.26895299711235 8.5048,47.37822,637.7310470028876 8.5048,47.3778,637.7310470028876 8.5048,47.3778,-47.26895299711235</coordinates>
                      </LinearRing>
                    </outerBoundaryIs>
                  </Polygon>
                </MultiGeometry>
              </Placemark>
            </Folder>
          </Folder>
        </Folder>
        <Folder>
          <name>Remove Valid Flight</name>
          <Folder>
            <name>E33: uss1_dss astm.f3548.v21.dss.queryOperationalIntentReferences</name>
            <Placemark>
              <name>area_of_interest</name>
              <styleUrl>#QueryArea</styleUrl>
              <description><![CDATA[<ul><li>fake_uss's Accepted f3f05fa6-08cb-41be-88c1-8f7c7e02d574[1]</li></ul>]]></description>
              <TimeSpan>
                <begin>2025-11-19T07:28:12.545676+00:00</begin>
                <end>2025-11-19T08:13:12.545676+00:00</end>
              </TimeSpan>
              <MultiGeometry>
                <Polygon>
                  <altitudeMode>absolute</altitudeMode>
                  <outerBoundaryIs>
                    <LinearRing>
                      <coordinates>8.504800000000001,47.3778,607.7310470028876 8.504800000000001,47.37822,607.7310470028876 8.5054,47.37822,607.7310470028876 8.5054,47.3778,607.7310470028876</coordinates>
                    </LinearRing>
                  </outerBoundaryIs>
                </Polygon>
                <Polygon>
                  <altitudeMode>absolute</altitudeMode>
                  <outerBoundaryIs>
                    <LinearRing>
                      <coordinates>8.504800000000001,47.3778,637.7310470028876 8.504800000000001,47.37822,637.7310470028876 8.5054,47.37822,637.7310470028876 8.5054,47.3778,637.7310470028876</coordinates>
                    </LinearRing>
                  </outerBoundaryIs>
                </Polygon>
                <Polygon>
                  <altitudeMode>absolute</altitudeMode>
                  <outerBoundaryIs>
                    <LinearRing>
                      <coordinates>8.504800000000001,47.3778,607.7310470028876 8.504800000000001,47.3778,637.7310470028876 8.504800000000001,47.37822,637.7310470028876 8.504800000000001,47.37822,607.7310470028876</coordinates>
                    </LinearRing>
                  </outerBoundaryIs>
                </Polygon>
                <Polygon>
                  <altitudeMode>absolute</altitudeMode>
                  <outerBoundaryIs>
                    <LinearRing>
                      <coordinates>8.504800000000001,47.37822,607.7310470028876 8.504800000000001,47.37822,637.7310470028876 8.5054,47.37822,637.7310470028876 8.5054,47.37822,607.7310470028876</coordinates>
                    </LinearRing>
                  </outerBoundaryIs>
                </Polygon>
                <Polygon>
                  <altitudeMode>absolute</altitudeMode>
                  <outerBoundaryIs>
                    <LinearRing>
                      <coordinates>8.5054,47.37822,607.7310470028876 8.5054,47.37822,637.7310470028876 8.5054,47.3778,637.7310470028876 8.5054,47.3778,607.7310470028876</coordinates>
                    </LinearRing>
                  </outerBoundaryIs>
                </Polygon>
                <Polygon>
                  <altitudeMode>absolute</altitudeMode>
                  <outerBoundaryIs>
                    <LinearRing>
                      <coordinates>8.5054,47.3778,607.7310470028876 8.5054,47.3778,637.7310470028876 8.504800000000001,47.3778,637.7310470028876 8.504800000000001,47.3778,607.7310470028876</coordinates>
                    </LinearRing>
                  </outerBoundaryIs>
                </Polygon>
              </MultiGeometry>
            </Placemark>
          </Folder>
          <Folder>
            <name>E37: uss1_dss astm.f3548.v21.dss.queryOperationalIntentReferences</name>
            <Placemark>
              <name>area_of_interest</name>
              <styleUrl>#QueryArea</styleUrl>
              <description><![CDATA[(no operational intent references found)]]></description>
              <TimeSpan>
                <begin>2025-11-19T07:28:12.545676+00:00</begin>
                <end>2025-11-19T08:13:12.545676+00:00</end>
              </TimeSpan>
              <MultiGeometry>
                <Polygon>
                  <altitudeMode>absolute</altitudeMode>
                  <outerBoundaryIs>
                    <LinearRing>
                      <coordinates>8.504800000000001,47.3778,607.7310470028876 8.504800000000001,47.37822,607.7310470028876 8.5054,47.37822,607.7310470028876 8.5054,47.3778,607.7310470028876</coordinates>
                    </LinearRing>
                  </outerBoundaryIs>
                </Polygon>
                <Polygon>
                  <altitudeMode>absolute</altitudeMode>
                  <outerBoundaryIs>
                    <LinearRing>
                      <coordinates>8.504800000000001,47.3778,637.7310470028876 8.504800000000001,47.37822,637.7310470028876 8.5054,47.37822,637.7310470028876 8.5054,47.3778,637.7310470028876</coordinates>
                    </LinearRing>
                  </outerBoundaryIs>
                </Polygon>
                <Polygon>
                  <altitudeMode>absolute</altitudeMode>
                  <outerBoundaryIs>
                    <LinearRing>
                      <coordinates>8.504800000000001,47.3778,607.7310470028876 8.504800000000001,47.3778,637.7310470028876 8.504800000000001,47.37822,637.7310470028876 8.504800000000001,47.37822,607.7310470028876</coordinates>
                    </LinearRing>
                  </outerBoundaryIs>
                </Polygon>
                <Polygon>
                  <altitudeMode>absolute</altitudeMode>
                  <outerBoundaryIs>
                    <LinearRing>
                      <coordinates>8.504800000000001,47.37822,607.7310470028876 8.504800000000001,47.37822,637.7310470028876 8.5054,47.37822,637.7310470028876 8.5054,47.37822,607.7310470028876</coordinates>
                    </LinearRing>
                  </outerBoundaryIs>
                </Polygon>
                <Polygon>
                  <altitudeMode>absolute</altitudeMode>
                  <outerBoundaryIs>
                    <LinearRing>
                      <coordinates>8.5054,47.37822,607.7310470028876 8.5054,47.37822,637.7310470028876 8.5054,47.3778,637.7310470028876 8.5054,47.3778,607.7310470028876</coordinates>
                    </LinearRing>
                  </outerBoundaryIs>
                </Polygon>
                <Polygon>
                  <altitudeMode>absolute</altitudeMode>
                  <outerBoundaryIs>
                    <LinearRing>
                      <coordinates>8.5054,47.3778,607.7310470028876 8.5054,47.3778,637.7310470028876 8.504800000000001,47.3778,637.7310470028876 8.504800000000001,47.3778,607.7310470028876</coordinates>
                    </LinearRing>
                  </outerBoundaryIs>
                </Polygon>
              </MultiGeometry>
            </Placemark>
          </Folder>
        </Folder>
      </Folder>
      <Folder>
        <name>Validate precision of intersection computations</name>
        <Folder>
          <name>Plan Valid Flight</name>
          <Folder>
            <name>E40: uss2_core interuss.automated_testing.flight_planning.v1.UpsertFlightPlan</name>
            <Folder>
              <name>Activity Completed, flight Planned</name>
              <Placemark>
                <name>Volume 0</name>
                <styleUrl>#Planned_Nominal</styleUrl>
                <TimeSpan>
                  <begin>2025-11-19T07:28:12.545676+00:00</begin>
                  <end>2025-11-19T08:13:12.545676+00:00</end>
                </TimeSpan>
                <MultiGeometry>
                  <Polygon>
                    <altitudeMode>absolute</altitudeMode>
                    <outerBoundaryIs>
                      <LinearRing>
                        <coordinates>8.5051,47.3778,607.7310290350193 8.504800000000001,47.37822,607.7310290350193 8.5054,47.37822,607.7310290350193</coordinates>
                      </LinearRing>
                    </outerBoundaryIs>
                  </Polygon>
                  <Polygon>
                    <altitudeMode>absolute</altitudeMode>
                    <outerBoundaryIs>
                      <LinearRing>
                        <coordinates>8.5051,47.3778,637.7310290350193 8.504800000000001,47.37822,637.7310290350193 8.5054,47.37822,637.7310290350193</coordinates>
                      </LinearRing>
                    </outerBoundaryIs>
                  </Polygon>
                  <Polygon>
                    <altitudeMode>absolute</altitudeMode>
                    <outerBoundaryIs>
                      <LinearRing>
                        <coordinates>8.5051,47.3778,607.7310290350193 8.5051,47.3778,637.7310290350193 8.504800000000001,47.37822,637.7310290350193 8.504800000000001,47.37822,607.7310290350193</coordinates>
                      </LinearRing>
                    </outerBoundaryIs>
                  </Polygon>
                  <Polygon>
                    <altitudeMode>absolute</altitudeMode>
                    <outerBoundaryIs>
                      <LinearRing>
                        <coordinates>8.504800000000001,47.37822,607.7310290350193 8.504800000000001,47.37822,637.7310290350193 8.5054,47.37822,637.7310290350193 8.5054,47.37822,607.7310290350193</coordinates>
                      </LinearRing>
                    </outerBoundaryIs>
                  </Polygon>
                  <Polygon>
                    <altitudeMode>absolute</altitudeMode>
                    <outerBoundaryIs>
                      <LinearRing>
                        <coordinates>8.5054,47.37822,607.7310290350193 8.5054,47.37822,637.7310290350193 8.5051,47.3778,637.7310290350193 8.5051,47.3778,607.7310290350193</coordinates>
                      </LinearRing>
                    </outerBoundaryIs>
                  </Polygon>
                </MultiGeometry>
              </Placemark>
            </Folder>
          </Folder>
        </Folder>
        <Folder>
          <name>Attempt to plan Tiny Overlap Conflict Flight</name>
          <Folder>
            <name>E43: uss1_dss astm.f3548.v21.dss.queryOperationalIntentReferences</name>
            <Placemark>
              <name>area_of_interest</name>
              <styleUrl>#QueryArea</styleUrl>
              <description><![CDATA[<ul><li>fake_uss's Accepted 482184a3-2543-4335-8576-f05287bf7a96[1]</li></ul>]]></description>
              <TimeSpan>
                <begin>2025-11-19T07:28:12.545676+00:00</begin>
                <end>2025-11-19T08:13:12.545676+00:00</end>
              </TimeSpan>
              <MultiGeometry>
                <Polygon>
                  <altitudeMode>absolute</altitudeMode>
                  <outerBoundaryIs>
                    <LinearRing>
                      <coordinates>8.504800000000001,47.37738,607.731153220176 8.504800000000001,47.37780010000001,607.731153220176 8.5054,47.37780010000001,607.731153220176 8.5054,47.37738,607.731153220176</coordinates>
                    </LinearRing>
                  </outerBoundaryIs>
                </Polygon>
                <Polygon>
                  <altitudeMode>absolute</altitudeMode>
                  <outerBoundaryIs>
                    <LinearRing>
                      <coordinates>8.504800000000001,47.37738,637.731153220176 8.504800000000001,47.37780010000001,637.731153220176 8.5054,47.37780010000001,637.731153220176 8.5054,47.37738,637.731153220176</coordinates>
                    </LinearRing>
                  </outerBoundaryIs>
                </Polygon>
                <Polygon>
                  <altitudeMode>absolute</altitudeMode>
                  <outerBoundaryIs>
                    <LinearRing>
                      <coordinates>8.504800000000001,47.37738,607.731153220176 8.504800000000001,47.37738,637.731153220176 8.504800000000001,47.37780010000001,637.731153220176 8.504800000000001,47.37780010000001,607.731153220176</coordinates>
                    </LinearRing>
                  </outerBoundaryIs>
                </Polygon>
                <Polygon>
                  <altitudeMode>absolute</altitudeMode>
                  <outerBoundaryIs>
                    <LinearRing>
                      <coordinates>8.504800000000001,47.37780010000001,607.731153220176 8.504800000000001,47.37780010000001,637.731153220176 8.5054,47.37780010000001,637.731153220176 8.5054,47.37780010000001,607.731153220176</coordinates>
                    </LinearRing>
                  </outerBoundaryIs>
                </Polygon>
                <Polygon>
                  <altitudeMode>absolute</altitudeMode>
                  <outerBoundaryIs>
                    <LinearRing>
                      <coordinates>8.5054,47.37780010000001,607.731153220176 8.5054,47.37780010000001,637.731153220176 8.5054,47.37738,637.731153220176 8.5054,47.37738,607.731153220176</coordinates>
                    </LinearRing>
                  </outerBoundaryIs>
                </Polygon>
                <Polygon>
                  <altitudeMode>absolute</altitudeMode>
                  <outerBoundaryIs>
                    <LinearRing>
                      <coordinates>8.5054,47.37738,607.731153220176 8.5054,47.37738,637.731153220176 8.504800000000001,47.37738,637.731153220176 8.504800000000001,47.37738,607.731153220176</coordinates>
                    </LinearRing>
                  </outerBoundaryIs>
                </Polygon>
              </MultiGeometry>
            </Placemark>
          </Folder>
          <Folder>
            <name>E45: uss2_core interuss.automated_testing.flight_planning.v1.UpsertFlightPlan</name>
            <Folder>
              <name>Activity Rejected, flight NotPlanned</name>
              <Placemark>
                <name>Volume 0</name>
                <styleUrl>#Planned_Nominal</styleUrl>
                <TimeSpan>
                  <begin>2025-11-19T07:28:12.545676+00:00</begin>
                  <end>2025-11-19T08:13:12.545676+00:00</end>
                </TimeSpan>
                <MultiGeometry>
                  <Polygon>
                    <altitudeMode>absolute</altitudeMode>
                    <outerBoundaryIs>
                      <LinearRing>
                        <coordinates>8.5051,47.3778001,607.7311706664042 8.504800000000001,47.37738,607.7311706664042 8.5054,47.37738,607.7311706664042</coordinates>
                      </LinearRing>
                    </outerBoundaryIs>
                  </Polygon>
                  <Polygon>
                    <altitudeMode>absolute</altitudeMode>
                    <outerBoundaryIs>
                      <LinearRing>
                        <coordinates>8.5051,47.3778001,637.7311706664042 8.504800000000001,47.37738,637.7311706664042 8.5054,47.37738,637.7311706664042</coordinates>
                      </LinearRing>
                    </outerBoundaryIs>
                  </Polygon>
                  <Polygon>
                    <altitudeMode>absolute</altitudeMode>
                    <outerBoundaryIs>
                      <LinearRing>
                        <coordinates>8.5051,47.3778001,607.7311706664042 8.5051,47.3778001,637.7311706664042 8.504800000000001,47.37738,637.7311706664042 8.504800000000001,47.37738,607.7311706664042</coordinates>
                      </LinearRing>
                    </outerBoundaryIs>
                  </Polygon>
                  <Polygon>
                    <altitudeMode>absolute</altitudeMode>
                    <outerBoundaryIs>
                      <LinearRing>
                        <coordinates>8.504800000000001,47.37738,607.7311706664042 8.504800000000001,47.37738,637.7311706664042 8.5054,47.37738,637.7311706664042 8.5054,47.37738,607.7311706664042</coordinates>
                      </LinearRing>
                    </outerBoundaryIs>
                  </Polygon>
                  <Polygon>
                    <altitudeMode>absolute</altitudeMode>
                    <outerBoundaryIs>
                      <LinearRing>
                        <coordinates>8.5054,47.37738,607.7311706664042 8.5054,47.37738,637.7311706664042 8.5051,47.3778001,637.7311706664042 8.5051,47.3778001,607.7311706664042</coordinates>
                      </LinearRing>
                    </outerBoundaryIs>
                  </Polygon>
                </MultiGeometry>
              </Placemark>
            </Folder>
          </Folder>
          <Folder>
            <name>E48: uss1_dss astm.f3548.v21.dss.queryOperationalIntentReferences</name>
            <Placemark>
              <name>area_of_interest</name>
              <styleUrl>#QueryArea</styleUrl>
              <description><![CDATA[<ul><li>fake_uss's Accepted 482184a3-2543-4335-8576-f05287bf7a96[1]</li></ul>]]></description>
              <TimeSpan>
                <begin>2025-11-19T07:28:12.545676+00:00</begin>
                <end>2025-11-19T08:13:12.545676+00:00</end>
              </TimeSpan>
              <MultiGeometry>
                <Polygon>
                  <altitudeMode>absolute</altitudeMode>
                  <outerBoundaryIs>
                    <LinearRing>
                      <coordinates>8.504800000000001,47.37738,607.731153220176 8.504800000000001,47.37780010000001,607.731153220176 8.5054,47.37780010000001,607.731153220176 8.5054,47.37738,607.731153220176</coordinates>
                    </LinearRing>
                  </outerBoundaryIs>
                </Polygon>
                <Polygon>
                  <altitudeMode>absolute</altitudeMode>
                  <outerBoundaryIs>
                    <LinearRing>
                      <coordinates>8.504800000000001,47.37738,637.731153220176 8.504800000000001,47.37780010000001,637.731153220176 8.5054,47.37780010000001,637.731153220176 8.5054,47.37738,637.731153220176</coordinates>
                    </LinearRing>
                  </outerBoundaryIs>
                </Polygon>
                <Polygon>
                  <altitudeMode>absolute</altitudeMode>
                  <outerBoundaryIs>
                    <LinearRing>
                      <coordinates>8.504800000000001,47.37738,607.731153220176 8.504800000000001,47.37738,637.731153220176 8.504800000000001,47.37780010000001,637.731153220176 8.504800000000001,47.37780010000001,607.731153220176</coordinates>
                    </LinearRing>
                  </outerBoundaryIs>
                </Polygon>
                <Polygon>
                  <altitudeMode>absolute</altitudeMode>
                  <outerBoundaryIs>
                    <LinearRing>
                      <coordinates>8.504800000000001,47.37780010000001,607.731153220176 8.504800000000001,47.37780010000001,637.731153220176 8.5054,47.37780010000001,637.731153220176 8.5054,47.37780010000001,607.731153220176</coordinates>
                    </LinearRing>
                  </outerBoundaryIs>
                </Polygon>
                <Polygon>
                  <altitudeMode>absolute</altitudeMode>
                  <outerBoundaryIs>
                    <LinearRing>
                      <coordinates>8.5054,47.37780010000001,607.731153220176 8.5054,47.37780010000001,637.731153220176 8.5054,47.37738,637.731153220176 8.5054,47.37738,607.731153220176</coordinates>
                    </LinearRing>
                  </outerBoundaryIs>
                </Polygon>
                <Polygon>
                  <altitudeMode>absolute</altitudeMode>
                  <outerBoundaryIs>
                    <LinearRing>
                      <coordinates>8.5054,47.37738,607.731153220176 8.5054,47.37738,637.731153220176 8.504800000000001,47.37738,637.731153220176 8.504800000000001,47.37738,607.731153220176</coordinates>
                    </LinearRing>
                  </outerBoundaryIs>
                </Polygon>
              </MultiGeometry>
            </Placemark>
          </Folder>
        </Folder>
      </Folder>
      <Folder>
        <name/>
        <Folder>
          <name>Cleanup</name>
        </Folder>
      </Folder>
    </Folder>
  </Document>
</kml>
