<kml xmlns="http://www.opengis.net/kml/2.2" xmlns:atom="http://www.w3.org/2005/Atom" xmlns:gx="http://www.google.com/kml/ext/2.2">
  <Document>
    <Style id="QueryArea">
      <LineStyle>
        <color>ffc0c000</color>
        <width>3</width>
      </LineStyle>
      <PolyStyle>
        <color>80ffffaa</color>
      </PolyStyle>
    </Style>
    <Style id="F3548v21Accepted">
      <LineStyle>
        <color>ff00c000</color>
        <width>3</width>
      </LineStyle>
      <PolyStyle>
        <color>80c0c0c0</color>
      </PolyStyle>
    </Style>
    <Style id="F3548v21Activated">
      <LineStyle>
        <color>ff00c000</color>
        <width>3</width>
      </LineStyle>
      <PolyStyle>
        <color>8000ff00</color>
      </PolyStyle>
    </Style>
    <Style id="F3548v21Nonconforming">
      <LineStyle>
        <color>ff00ffff</color>
        <width>5</width>
      </LineStyle>
      <PolyStyle>
        <color>8000ffff</color>
      </PolyStyle>
    </Style>
    <Style id="F3548v21Contingent">
      <LineStyle>
        <color>ff0000ff</color>
        <width>5</width>
      </LineStyle>
      <PolyStyle>
        <color>80ff0000ff</color>
      </PolyStyle>
    </Style>
    <Style id="F3548v21AcceptedFuture">
      <LineStyle>
        <color>80c0c0c0</color>
        <width>1</width>
      </LineStyle>
      <PolyStyle>
        <color>00000000</color>
      </PolyStyle>
    </Style>
    <Style id="F3548v21ActivatedFuture">
      <LineStyle>
        <color>8040c040</color>
        <width>1</width>
      </LineStyle>
      <PolyStyle>
        <color>00000000</color>
      </PolyStyle>
    </Style>
    <Style id="F3548v21NonconformingFuture">
      <LineStyle>
        <color>8000ffff</color>
        <width>1</width>
      </LineStyle>
      <PolyStyle>
        <color>00000000</color>
      </PolyStyle>
    </Style>
    <Style id="F3548v21ContingentFuture">
      <LineStyle>
        <color>80ff0000ff</color>
        <width>1</width>
      </LineStyle>
      <PolyStyle>
        <color>00000000</color>
      </PolyStyle>
    </Style>
    <Style id="Planned_Nominal">
      <LineStyle>
        <color>ff00c000</color>
        <width>3</width>
      </LineStyle>
      <PolyStyle>
        <color>80808080</color>
      </PolyStyle>
    </Style>
    <Style id="InUse_Nominal">
      <LineStyle>
        <color>ff00c000</color>
        <width>3</width>
      </LineStyle>
      <PolyStyle>
        <color>8000ff00</color>
      </PolyStyle>
    </Style>
    <Style id="InUse_OffNominal">
      <LineStyle>
        <color>ff00ffff</color>
        <width>5</width>
      </LineStyle>
      <PolyStyle>
        <color>8000ff00</color>
      </PolyStyle>
    </Style>
    <Style id="InUse_Contingent">
      <LineStyle>
        <color>ff0000ff</color>
        <width>5</width>
      </LineStyle>
      <PolyStyle>
        <color>8000ff00</color>
      </PolyStyle>
    </Style>
    <Folder>
      <name>Nominal planning: not permitted conflict with equal priority</name>
      <Folder>
        <name>Prerequisites check</name>
        <Folder>
          <name>Verify area is clear</name>
          <Folder>
            <name>E3: uss1_dss astm.f3548.v21.dss.queryOperationalIntentReferences</name>
            <Placemark>
              <name>area_of_interest</name>
              <styleUrl>#QueryArea</styleUrl>
              <description><![CDATA[(no operational intent references found)]]></description>
              <TimeSpan>
                <begin>2025-11-07T08:20:56.999618+00:00</begin>
                <end>2025-11-07T09:50:57.999618+00:00</end>
              </TimeSpan>
              <MultiGeometry>
                <Polygon>
                  <altitudeMode>absolute</altitudeMode>
                  <outerBoundaryIs>
                    <LinearRing>
                      <coordinates>8.504900000000001,47.37755,577.6813050468143 8.504900000000001,47.3783,577.6813050468143 8.505650000000001,47.3783,577.6813050468143 8.505650000000001,47.37755,577.6813050468143</coordinates>
                    </LinearRing>
                  </outerBoundaryIs>
                </Polygon>
                <Polygon>
                  <altitudeMode>absolute</altitudeMode>
                  <outerBoundaryIs>
                    <LinearRing>
                      <coordinates>8.504900000000001,47.37755,657.7313050468142 8.504900000000001,47.3783,657.7313050468142 8.505650000000001,47.3783,657.7313050468142 8.505650000000001,47.37755,657.7313050468142</coordinates>
                    </LinearRing>
                  </outerBoundaryIs>
                </Polygon>
                <Polygon>
                  <altitudeMode>absolute</altitudeMode>
                  <outerBoundaryIs>
                    <LinearRing>
                      <coordinates>8.504900000000001,47.37755,577.6813050468143 8.504900000000001,47.37755,657.7313050468142 8.504900000000001,47.3783,657.7313050468142 8.504900000000001,47.3783,577.6813050468143</coordinates>
                    </LinearRing>
                  </outerBoundaryIs>
                </Polygon>
                <Polygon>
                  <altitudeMode>absolute</altitudeMode>
                  <outerBoundaryIs>
                    <LinearRing>
                      <coordinates>8.504900000000001,47.3783,577.6813050468143 8.504900000000001,47.3783,657.7313050468142 8.505650000000001,47.3783,657.7313050468142 8.505650000000001,47.3783,577.6813050468143</coordinates>
                    </LinearRing>
                  </outerBoundaryIs>
                </Polygon>
                <Polygon>
                  <altitudeMode>absolute</altitudeMode>
                  <outerBoundaryIs>
                    <LinearRing>
                      <coordinates>8.505650000000001,47.3783,577.6813050468143 8.505650000000001,47.3783,657.7313050468142 8.505650000000001,47.37755,657.7313050468142 8.505650000000001,47.37755,577.6813050468143</coordinates>
                    </LinearRing>
                  </outerBoundaryIs>
                </Polygon>
                <Polygon>
                  <altitudeMode>absolute</altitudeMode>
                  <outerBoundaryIs>
                    <LinearRing>
                      <coordinates>8.505650000000001,47.37755,577.6813050468143 8.505650000000001,47.37755,657.7313050468142 8.504900000000001,47.37755,657.7313050468142 8.504900000000001,47.37755,577.6813050468143</coordinates>
                    </LinearRing>
                  </outerBoundaryIs>
                </Polygon>
              </MultiGeometry>
            </Placemark>
          </Folder>
        </Folder>
      </Folder>
      <Folder>
        <name>Attempt to plan flight into conflict</name>
        <Folder>
          <name>Plan Flight 2</name>
          <Folder>
            <name>E6: uss1_dss astm.f3548.v21.dss.queryOperationalIntentReferences</name>
            <Placemark>
              <name>area_of_interest</name>
              <styleUrl>#QueryArea</styleUrl>
              <description><![CDATA[(no operational intent references found)]]></description>
              <TimeSpan>
                <begin>2025-11-07T08:22:39.669711+00:00</begin>
                <end>2025-11-07T09:07:40.669711+00:00</end>
              </TimeSpan>
              <MultiGeometry>
                <Polygon>
                  <altitudeMode>absolute</altitudeMode>
                  <outerBoundaryIs>
                    <LinearRing>
                      <coordinates>8.504900000000001,47.37755,607.8310687200343 8.504900000000001,47.3783,607.8310687200343 8.5053,47.3783,607.8310687200343 8.5053,47.37755,607.8310687200343</coordinates>
                    </LinearRing>
                  </outerBoundaryIs>
                </Polygon>
                <Polygon>
                  <altitudeMode>absolute</altitudeMode>
                  <outerBoundaryIs>
                    <LinearRing>
                      <coordinates>8.504900000000001,47.37755,635.7310687200343 8.504900000000001,47.3783,635.7310687200343 8.5053,47.3783,635.7310687200343 8.5053,47.37755,635.7310687200343</coordinates>
                    </LinearRing>
                  </outerBoundaryIs>
                </Polygon>
                <Polygon>
                  <altitudeMode>absolute</altitudeMode>
                  <outerBoundaryIs>
                    <LinearRing>
                      <coordinates>8.504900000000001,47.37755,607.8310687200343 8.504900000000001,47.37755,635.7310687200343 8.504900000000001,47.3783,635.7310687200343 8.504900000000001,47.3783,607.8310687200343</coordinates>
                    </LinearRing>
                  </outerBoundaryIs>
                </Polygon>
                <Polygon>
                  <altitudeMode>absolute</altitudeMode>
                  <outerBoundaryIs>
                    <LinearRing>
                      <coordinates>8.504900000000001,47.3783,607.8310687200343 8.504900000000001,47.3783,635.7310687200343 8.5053,47.3783,635.7310687200343 8.5053,47.3783,607.8310687200343</coordinates>
                    </LinearRing>
                  </outerBoundaryIs>
                </Polygon>
                <Polygon>
                  <altitudeMode>absolute</altitudeMode>
                  <outerBoundaryIs>
                    <LinearRing>
                      <coordinates>8.5053,47.3783,607.8310687200343 8.5053,47.3783,635.7310687200343 8.5053,47.37755,635.7310687200343 8.5053,47.37755,607.8310687200343</coordinates>
                    </LinearRing>
                  </outerBoundaryIs>
                </Polygon>
                <Polygon>
                  <altitudeMode>absolute</altitudeMode>
                  <outerBoundaryIs>
                    <LinearRing>
                      <coordinates>8.5053,47.37755,607.8310687200343 8.5053,47.37755,635.7310687200343 8.504900000000001,47.37755,635.7310687200343 8.504900000000001,47.37755,607.8310687200343</coordinates>
                    </LinearRing>
                  </outerBoundaryIs>
                </Polygon>
              </MultiGeometry>
            </Placemark>
          </Folder>
          <Folder>
            <name>E8: uss2_core interuss.automated_testing.flight_planning.v1.UpsertFlightPlan</name>
            <Folder>
              <name>Activity Completed, flight Planned</name>
              <Placemark>
                <name>Volume 0</name>
                <styleUrl>#Planned_Nominal</styleUrl>
                <TimeSpan>
                  <begin>2025-11-07T08:22:39.669711+00:00</begin>
                  <end>2025-11-07T09:07:40.669711+00:00</end>
                </TimeSpan>
                <MultiGeometry>
                  <Polygon>
                    <altitudeMode>absolute</altitudeMode>
                    <outerBoundaryIs>
                      <LinearRing>
                        <coordinates>8.504900000000001,47.378,607.8310623441351 8.5051,47.37755,607.8310623441351 8.5053,47.37795,607.8310623441351 8.5051,47.3783,607.8310623441351</coordinates>
                      </LinearRing>
                    </outerBoundaryIs>
                  </Polygon>
                  <Polygon>
                    <altitudeMode>absolute</altitudeMode>
                    <outerBoundaryIs>
                      <LinearRing>
                        <coordinates>8.504900000000001,47.378,635.7310623441351 8.5051,47.37755,635.7310623441351 8.5053,47.37795,635.7310623441351 8.5051,47.3783,635.7310623441351</coordinates>
                      </LinearRing>
                    </outerBoundaryIs>
                  </Polygon>
                  <Polygon>
                    <altitudeMode>absolute</altitudeMode>
                    <outerBoundaryIs>
                      <LinearRing>
                        <coordinates>8.504900000000001,47.378,607.8310623441351 8.504900000000001,47.378,635.7310623441351 8.5051,47.37755,635.7310623441351 8.5051,47.37755,607.8310623441351</coordinates>
                      </LinearRing>
                    </outerBoundaryIs>
                  </Polygon>
                  <Polygon>
                    <altitudeMode>absolute</altitudeMode>
                    <outerBoundaryIs>
                      <LinearRing>
                        <coordinates>8.5051,47.37755,607.8310623441351 8.5051,47.37755,635.7310623441351 8.5053,47.37795,635.7310623441351 8.5053,47.37795,607.8310623441351</coordinates>
                      </LinearRing>
                    </outerBoundaryIs>
                  </Polygon>
                  <Polygon>
                    <altitudeMode>absolute</altitudeMode>
                    <outerBoundaryIs>
                      <LinearRing>
                        <coordinates>8.5053,47.37795,607.8310623441351 8.5053,47.37795,635.7310623441351 8.5051,47.3783,635.7310623441351 8.5051,47.3783,607.8310623441351</coordinates>
                      </LinearRing>
                    </outerBoundaryIs>
                  </Polygon>
                  <Polygon>
                    <altitudeMode>absolute</altitudeMode>
                    <outerBoundaryIs>
                      <LinearRing>
                        <coordinates>8.5051,47.3783,607.8310623441351 8.5051,47.3783,635.7310623441351 8.504900000000001,47.378,635.7310623441351 8.504900000000001,47.378,607.8310623441351</coordinates>
                      </LinearRing>
                    </outerBoundaryIs>
                  </Polygon>
                </MultiGeometry>
              </Placemark>
            </Folder>
          </Folder>
          <Folder>
            <name>E11: uss1_dss astm.f3548.v21.dss.queryOperationalIntentReferences</name>
            <Placemark>
              <name>area_of_interest</name>
              <styleUrl>#QueryArea</styleUrl>
              <description><![CDATA[<ul><li>fake_uss's Accepted d5f4c232-432c-46f0-8db3-10b5ce82c18b[1]</li></ul>]]></description>
              <TimeSpan>
                <begin>2025-11-07T08:22:39.669711+00:00</begin>
                <end>2025-11-07T09:07:40.669711+00:00</end>
              </TimeSpan>
              <MultiGeometry>
                <Polygon>
                  <altitudeMode>absolute</altitudeMode>
                  <outerBoundaryIs>
                    <LinearRing>
                      <coordinates>8.504900000000001,47.37755,607.8310687200343 8.504900000000001,47.3783,607.8310687200343 8.5053,47.3783,607.8310687200343 8.5053,47.37755,607.8310687200343</coordinates>
                    </LinearRing>
                  </outerBoundaryIs>
                </Polygon>
                <Polygon>
                  <altitudeMode>absolute</altitudeMode>
                  <outerBoundaryIs>
                    <LinearRing>
                      <coordinates>8.504900000000001,47.37755,635.7310687200343 8.504900000000001,47.3783,635.7310687200343 8.5053,47.3783,635.7310687200343 8.5053,47.37755,635.7310687200343</coordinates>
                    </LinearRing>
                  </outerBoundaryIs>
                </Polygon>
                <Polygon>
                  <altitudeMode>absolute</altitudeMode>
                  <outerBoundaryIs>
                    <LinearRing>
                      <coordinates>8.504900000000001,47.37755,607.8310687200343 8.504900000000001,47.37755,635.7310687200343 8.504900000000001,47.3783,635.7310687200343 8.504900000000001,47.3783,607.8310687200343</coordinates>
                    </LinearRing>
                  </outerBoundaryIs>
                </Polygon>
                <Polygon>
                  <altitudeMode>absolute</altitudeMode>
                  <outerBoundaryIs>
                    <LinearRing>
                      <coordinates>8.504900000000001,47.3783,607.8310687200343 8.504900000000001,47.3783,635.7310687200343 8.5053,47.3783,635.7310687200343 8.5053,47.3783,607.8310687200343</coordinates>
                    </LinearRing>
                  </outerBoundaryIs>
                </Polygon>
                <Polygon>
                  <altitudeMode>absolute</altitudeMode>
                  <outerBoundaryIs>
                    <LinearRing>
                      <coordinates>8.5053,47.3783,607.8310687200343 8.5053,47.3783,635.7310687200343 8.5053,47.37755,635.7310687200343 8.5053,47.37755,607.8310687200343</coordinates>
                    </LinearRing>
                  </outerBoundaryIs>
                </Polygon>
                <Polygon>
                  <altitudeMode>absolute</altitudeMode>
                  <outerBoundaryIs>
                    <LinearRing>
                      <coordinates>8.5053,47.37755,607.8310687200343 8.5053,47.37755,635.7310687200343 8.504900000000001,47.37755,635.7310687200343 8.504900000000001,47.37755,607.8310687200343</coordinates>
                    </LinearRing>
                  </outerBoundaryIs>
                </Polygon>
              </MultiGeometry>
            </Placemark>
          </Folder>
          <Folder>
            <name>E15: uss2_core astm.f3548.v21.uss.getOperationalIntentDetails</name>
            <Folder>
              <name>fake_uss's P0 Accepted d5f4c232-432c-46f0-8db3-10b5ce82c18b[1] @ 7gxAhfubqOfV3VvNXw-HwnJvBAy.0Dh-bYDusar6UGc_</name>
              <Placemark>
                <name>Nominal volume 0</name>
                <styleUrl>#F3548v21Accepted</styleUrl>
                <TimeSpan>
                  <begin>2025-11-07T08:19:39+00:00</begin>
                  <end>2025-11-07T09:12:40+00:00</end>
                </TimeSpan>
                <MultiGeometry>
                  <Polygon>
                    <altitudeMode>absolute</altitudeMode>
                    <outerBoundaryIs>
                      <LinearRing>
                        <coordinates>8.503841,47.375339,-47.26887329037803 8.506357,47.375339,-47.26887329037803 8.506357,47.380042,-47.26887329037803 8.503841,47.380042,-47.26887329037803</coordinates>
                      </LinearRing>
                    </outerBoundaryIs>
                  </Polygon>
                  <Polygon>
                    <altitudeMode>absolute</altitudeMode>
                    <outerBoundaryIs>
                      <LinearRing>
                        <coordinates>8.503841,47.375339,710.731126709622 8.506357,47.375339,710.731126709622 8.506357,47.380042,710.731126709622 8.503841,47.380042,710.731126709622</coordinates>
                      </LinearRing>
                    </outerBoundaryIs>
                  </Polygon>
                  <Polygon>
                    <altitudeMode>absolute</altitudeMode>
                    <outerBoundaryIs>
                      <LinearRing>
                        <coordinates>8.503841,47.375339,-47.26887329037803 8.503841,47.375339,710.731126709622 8.506357,47.375339,710.731126709622 8.506357,47.375339,-47.26887329037803</coordinates>
                      </LinearRing>
                    </outerBoundaryIs>
                  </Polygon>
                  <Polygon>
                    <altitudeMode>absolute</altitudeMode>
                    <outerBoundaryIs>
                      <LinearRing>
                        <coordinates>8.506357,47.375339,-47.26887329037803 8.506357,47.375339,710.731126709622 8.506357,47.380042,710.731126709622 8.506357,47.380042,-47.26887329037803</coordinates>
                      </LinearRing>
                    </outerBoundaryIs>
                  </Polygon>
                  <Polygon>
                    <altitudeMode>absolute</altitudeMode>
                    <outerBoundaryIs>
                      <LinearRing>
                        <coordinates>8.506357,47.380042,-47.26887329037803 8.506357,47.380042,710.731126709622 8.503841,47.380042,710.731126709622 8.503841,47.380042,-47.26887329037803</coordinates>
                      </LinearRing>
                    </outerBoundaryIs>
                  </Polygon>
                  <Polygon>
                    <altitudeMode>absolute</altitudeMode>
                    <outerBoundaryIs>
                      <LinearRing>
                        <coordinates>8.503841,47.380042,-47.26887329037803 8.503841,47.380042,710.731126709622 8.503841,47.375339,710.731126709622 8.503841,47.375339,-47.26887329037803</coordinates>
                      </LinearRing>
                    </outerBoundaryIs>
                  </Polygon>
                </MultiGeometry>
              </Placemark>
            </Folder>
          </Folder>
        </Folder>
        <Folder>
          <name>Activate Flight 2</name>
          <Folder>
            <name>E21: uss1_dss astm.f3548.v21.dss.queryOperationalIntentReferences</name>
            <Placemark>
              <name>area_of_interest</name>
              <styleUrl>#QueryArea</styleUrl>
              <description><![CDATA[<ul><li>fake_uss's Accepted d5f4c232-432c-46f0-8db3-10b5ce82c18b[1]</li></ul>]]></description>
              <TimeSpan>
                <begin>2025-11-07T08:22:41.644308+00:00</begin>
                <end>2025-11-07T09:07:42.644308+00:00</end>
              </TimeSpan>
              <MultiGeometry>
                <Polygon>
                  <altitudeMode>absolute</altitudeMode>
                  <outerBoundaryIs>
                    <LinearRing>
                      <coordinates>8.504900000000001,47.37755,607.8410687200343 8.504900000000001,47.3783,607.8410687200343 8.5053,47.3783,607.8410687200343 8.5053,47.37755,607.8410687200343</coordinates>
                    </LinearRing>
                  </outerBoundaryIs>
                </Polygon>
                <Polygon>
                  <altitudeMode>absolute</altitudeMode>
                  <outerBoundaryIs>
                    <LinearRing>
                      <coordinates>8.504900000000001,47.37755,635.7310687200343 8.504900000000001,47.3783,635.7310687200343 8.5053,47.3783,635.7310687200343 8.5053,47.37755,635.7310687200343</coordinates>
                    </LinearRing>
                  </outerBoundaryIs>
                </Polygon>
                <Polygon>
                  <altitudeMode>absolute</altitudeMode>
                  <outerBoundaryIs>
                    <LinearRing>
                      <coordinates>8.504900000000001,47.37755,607.8410687200343 8.504900000000001,47.37755,635.7310687200343 8.504900000000001,47.3783,635.7310687200343 8.504900000000001,47.3783,607.8410687200343</coordinates>
                    </LinearRing>
                  </outerBoundaryIs>
                </Polygon>
                <Polygon>
                  <altitudeMode>absolute</altitudeMode>
                  <outerBoundaryIs>
                    <LinearRing>
                      <coordinates>8.504900000000001,47.3783,607.8410687200343 8.504900000000001,47.3783,635.7310687200343 8.5053,47.3783,635.7310687200343 8.5053,47.3783,607.8410687200343</coordinates>
                    </LinearRing>
                  </outerBoundaryIs>
                </Polygon>
                <Polygon>
                  <altitudeMode>absolute</altitudeMode>
                  <outerBoundaryIs>
                    <LinearRing>
                      <coordinates>8.5053,47.3783,607.8410687200343 8.5053,47.3783,635.7310687200343 8.5053,47.37755,635.7310687200343 8.5053,47.37755,607.8410687200343</coordinates>
                    </LinearRing>
                  </outerBoundaryIs>
                </Polygon>
                <Polygon>
                  <altitudeMode>absolute</altitudeMode>
                  <outerBoundaryIs>
                    <LinearRing>
                      <coordinates>8.5053,47.37755,607.8410687200343 8.5053,47.37755,635.7310687200343 8.504900000000001,47.37755,635.7310687200343 8.504900000000001,47.37755,607.8410687200343</coordinates>
                    </LinearRing>
                  </outerBoundaryIs>
                </Polygon>
              </MultiGeometry>
            </Placemark>
          </Folder>
          <Folder>
            <name>E23: uss2_core interuss.automated_testing.flight_planning.v1.UpsertFlightPlan</name>
            <Folder>
              <name>Activity Completed, flight OkToFly</name>
              <Placemark>
                <name>Volume 0</name>
                <styleUrl>#InUse_Nominal</styleUrl>
                <TimeSpan>
                  <begin>2025-11-07T08:22:41.644308+00:00</begin>
                  <end>2025-11-07T09:07:42.644308+00:00</end>
                </TimeSpan>
                <MultiGeometry>
                  <Polygon>
                    <altitudeMode>absolute</altitudeMode>
                    <outerBoundaryIs>
                      <LinearRing>
                        <coordinates>8.504900000000001,47.378,607.8410623441351 8.5051,47.37755,607.8410623441351 8.5053,47.37795,607.8410623441351 8.5051,47.3783,607.8410623441351</coordinates>
                      </LinearRing>
                    </outerBoundaryIs>
                  </Polygon>
                  <Polygon>
                    <altitudeMode>absolute</altitudeMode>
                    <outerBoundaryIs>
                      <LinearRing>
                        <coordinates>8.504900000000001,47.378,635.7310623441351 8.5051,47.37755,635.7310623441351 8.5053,47.37795,635.7310623441351 8.5051,47.3783,635.7310623441351</coordinates>
                      </LinearRing>
                    </outerBoundaryIs>
                  </Polygon>
                  <Polygon>
                    <altitudeMode>absolute</altitudeMode>
                    <outerBoundaryIs>
                      <LinearRing>
                        <coordinates>8.504900000000001,47.378,607.8410623441351 8.504900000000001,47.378,635.7310623441351 8.5051,47.37755,635.7310623441351 8.5051,47.37755,607.8410623441351</coordinates>
                      </LinearRing>
                    </outerBoundaryIs>
                  </Polygon>
                  <Polygon>
                    <altitudeMode>absolute</altitudeMode>
                    <outerBoundaryIs>
                      <LinearRing>
                        <coordinates>8.5051,47.37755,607.8410623441351 8.5051,47.37755,635.7310623441351 8.5053,47.37795,635.7310623441351 8.5053,47.37795,607.8410623441351</coordinates>
                      </LinearRing>
                    </outerBoundaryIs>
                  </Polygon>
                  <Polygon>
                    <altitudeMode>absolute</altitudeMode>
                    <outerBoundaryIs>
                      <LinearRing>
                        <coordinates>8.5053,47.37795,607.8410623441351 8.5053,47.37795,635.7310623441351 8.5051,47.3783,635.7310623441351 8.5051,47.3783,607.8410623441351</coordinates>
                      </LinearRing>
                    </outerBoundaryIs>
                  </Polygon>
                  <Polygon>
                    <altitudeMode>absolute</altitudeMode>
                    <outerBoundaryIs>
                      <LinearRing>
                        <coordinates>8.5051,47.3783,607.8410623441351 8.5051,47.3783,635.7310623441351 8.504900000000001,47.378,635.7310623441351 8.504900000000001,47.378,607.8410623441351</coordinates>
                      </LinearRing>
                    </outerBoundaryIs>
                  </Polygon>
                </MultiGeometry>
              </Placemark>
            </Folder>
          </Folder>
          <Folder>
            <name>E26: uss1_dss astm.f3548.v21.dss.queryOperationalIntentReferences</name>
            <Placemark>
              <name>area_of_interest</name>
              <styleUrl>#QueryArea</styleUrl>
              <description><![CDATA[<ul><li>fake_uss's Activated 283ba615-55f6-4b71-925f-e6a51c973423[2]</li></ul>]]></description>
              <TimeSpan>
                <begin>2025-11-07T08:22:41.644308+00:00</begin>
                <end>2025-11-07T09:07:42.644308+00:00</end>
              </TimeSpan>
              <MultiGeometry>
                <Polygon>
                  <altitudeMode>absolute</altitudeMode>
                  <outerBoundaryIs>
                    <LinearRing>
                      <coordinates>8.504900000000001,47.37755,607.8410687200343 8.504900000000001,47.3783,607.8410687200343 8.5053,47.3783,607.8410687200343 8.5053,47.37755,607.8410687200343</coordinates>
                    </LinearRing>
                  </outerBoundaryIs>
                </Polygon>
                <Polygon>
                  <altitudeMode>absolute</altitudeMode>
                  <outerBoundaryIs>
                    <LinearRing>
                      <coordinates>8.504900000000001,47.37755,635.7310687200343 8.504900000000001,47.3783,635.7310687200343 8.5053,47.3783,635.7310687200343 8.5053,47.37755,635.7310687200343</coordinates>
                    </LinearRing>
                  </outerBoundaryIs>
                </Polygon>
                <Polygon>
                  <altitudeMode>absolute</altitudeMode>
                  <outerBoundaryIs>
                    <LinearRing>
                      <coordinates>8.504900000000001,47.37755,607.8410687200343 8.504900000000001,47.37755,635.7310687200343 8.504900000000001,47.3783,635.7310687200343 8.504900000000001,47.3783,607.8410687200343</coordinates>
                    </LinearRing>
                  </outerBoundaryIs>
                </Polygon>
                <Polygon>
                  <altitudeMode>absolute</altitudeMode>
                  <outerBoundaryIs>
                    <LinearRing>
                      <coordinates>8.504900000000001,47.3783,607.8410687200343 8.504900000000001,47.3783,635.7310687200343 8.5053,47.3783,635.7310687200343 8.5053,47.3783,607.8410687200343</coordinates>
                    </LinearRing>
                  </outerBoundaryIs>
                </Polygon>
                <Polygon>
                  <altitudeMode>absolute</altitudeMode>
                  <outerBoundaryIs>
                    <LinearRing>
                      <coordinates>8.5053,47.3783,607.8410687200343 8.5053,47.3783,635.7310687200343 8.5053,47.37755,635.7310687200343 8.5053,47.37755,607.8410687200343</coordinates>
                    </LinearRing>
                  </outerBoundaryIs>
                </Polygon>
                <Polygon>
                  <altitudeMode>absolute</altitudeMode>
                  <outerBoundaryIs>
                    <LinearRing>
                      <coordinates>8.5053,47.37755,607.8410687200343 8.5053,47.37755,635.7310687200343 8.504900000000001,47.37755,635.7310687200343 8.504900000000001,47.37755,607.8410687200343</coordinates>
                    </LinearRing>
                  </outerBoundaryIs>
                </Polygon>
              </MultiGeometry>
            </Placemark>
          </Folder>
          <Folder>
            <name>E30: uss2_core astm.f3548.v21.uss.getOperationalIntentDetails</name>
            <Folder>
              <name>fake_uss's P0 Activated 283ba615-55f6-4b71-925f-e6a51c973423[2] @ ChqlQzFDy15jgDMPKQPpy4g9V04rXggNyoKSbYcvq.Y_</name>
              <Placemark>
                <name>Nominal volume 0</name>
                <styleUrl>#F3548v21Activated</styleUrl>
                <TimeSpan>
                  <begin>2025-11-07T08:19:41+00:00</begin>
                  <end>2025-11-07T09:12:42+00:00</end>
                </TimeSpan>
                <MultiGeometry>
                  <Polygon>
                    <altitudeMode>absolute</altitudeMode>
                    <outerBoundaryIs>
                      <LinearRing>
                        <coordinates>8.503841,47.375339,-47.26887329037803 8.506357,47.375339,-47.26887329037803 8.506357,47.380042,-47.26887329037803 8.503841,47.380042,-47.26887329037803</coordinates>
                      </LinearRing>
                    </outerBoundaryIs>
                  </Polygon>
                  <Polygon>
                    <altitudeMode>absolute</altitudeMode>
                    <outerBoundaryIs>
                      <LinearRing>
                        <coordinates>8.503841,47.375339,710.731126709622 8.506357,47.375339,710.731126709622 8.506357,47.380042,710.731126709622 8.503841,47.380042,710.731126709622</coordinates>
                      </LinearRing>
                    </outerBoundaryIs>
                  </Polygon>
                  <Polygon>
                    <altitudeMode>absolute</altitudeMode>
                    <outerBoundaryIs>
                      <LinearRing>
                        <coordinates>8.503841,47.375339,-47.26887329037803 8.503841,47.375339,710.731126709622 8.506357,47.375339,710.731126709622 8.506357,47.375339,-47.26887329037803</coordinates>
                      </LinearRing>
                    </outerBoundaryIs>
                  </Polygon>
                  <Polygon>
                    <altitudeMode>absolute</altitudeMode>
                    <outerBoundaryIs>
                      <LinearRing>
                        <coordinates>8.506357,47.375339,-47.26887329037803 8.506357,47.375339,710.731126709622 8.506357,47.380042,710.731126709622 8.506357,47.380042,-47.26887329037803</coordinates>
                      </LinearRing>
                    </outerBoundaryIs>
                  </Polygon>
                  <Polygon>
                    <altitudeMode>absolute</altitudeMode>
                    <outerBoundaryIs>
                      <LinearRing>
                        <coordinates>8.506357,47.380042,-47.26887329037803 8.506357,47.380042,710.731126709622 8.503841,47.380042,710.731126709622 8.503841,47.380042,-47.26887329037803</coordinates>
                      </LinearRing>
                    </outerBoundaryIs>
                  </Polygon>
                  <Polygon>
                    <altitudeMode>absolute</altitudeMode>
                    <outerBoundaryIs>
                      <LinearRing>
                        <coordinates>8.503841,47.380042,-47.26887329037803 8.503841,47.380042,710.731126709622 8.503841,47.375339,710.731126709622 8.503841,47.375339,-47.26887329037803</coordinates>
                      </LinearRing>
                    </outerBoundaryIs>
                  </Polygon>
                </MultiGeometry>
              </Placemark>
            </Folder>
          </Folder>
        </Folder>
        <Folder>
          <name>Attempt to plan Flight 1</name>
          <Folder>
            <name>E36: uss1_dss astm.f3548.v21.dss.queryOperationalIntentReferences</name>
            <Placemark>
              <name>area_of_interest</name>
              <styleUrl>#QueryArea</styleUrl>
              <description><![CDATA[<ul><li>fake_uss's Activated 283ba615-55f6-4b71-925f-e6a51c973423[2]</li></ul>]]></description>
              <TimeSpan>
                <begin>2025-11-07T08:22:47.799453+00:00</begin>
                <end>2025-11-07T09:07:48.799453+00:00</end>
              </TimeSpan>
              <MultiGeometry>
                <Polygon>
                  <altitudeMode>absolute</altitudeMode>
                  <outerBoundaryIs>
                    <LinearRing>
                      <coordinates>8.504950000000001,47.37755,607.7413893796152 8.504950000000001,47.377900000000004,607.7413893796152 8.505650000000001,47.377900000000004,607.7413893796152 8.505650000000001,47.37755,607.7413893796152</coordinates>
                    </LinearRing>
                  </outerBoundaryIs>
                </Polygon>
                <Polygon>
                  <altitudeMode>absolute</altitudeMode>
                  <outerBoundaryIs>
                    <LinearRing>
                      <coordinates>8.504950000000001,47.37755,637.7313893796152 8.504950000000001,47.377900000000004,637.7313893796152 8.505650000000001,47.377900000000004,637.7313893796152 8.505650000000001,47.37755,637.7313893796152</coordinates>
                    </LinearRing>
                  </outerBoundaryIs>
                </Polygon>
                <Polygon>
                  <altitudeMode>absolute</altitudeMode>
                  <outerBoundaryIs>
                    <LinearRing>
                      <coordinates>8.504950000000001,47.37755,607.7413893796152 8.504950000000001,47.37755,637.7313893796152 8.504950000000001,47.377900000000004,637.7313893796152 8.504950000000001,47.377900000000004,607.7413893796152</coordinates>
                    </LinearRing>
                  </outerBoundaryIs>
                </Polygon>
                <Polygon>
                  <altitudeMode>absolute</altitudeMode>
                  <outerBoundaryIs>
                    <LinearRing>
                      <coordinates>8.504950000000001,47.377900000000004,607.7413893796152 8.504950000000001,47.377900000000004,637.7313893796152 8.505650000000001,47.377900000000004,637.7313893796152 8.505650000000001,47.377900000000004,607.7413893796152</coordinates>
                    </LinearRing>
                  </outerBoundaryIs>
                </Polygon>
                <Polygon>
                  <altitudeMode>absolute</altitudeMode>
                  <outerBoundaryIs>
                    <LinearRing>
                      <coordinates>8.505650000000001,47.377900000000004,607.7413893796152 8.505650000000001,47.377900000000004,637.7313893796152 8.505650000000001,47.37755,637.7313893796152 8.505650000000001,47.37755,607.7413893796152</coordinates>
                    </LinearRing>
                  </outerBoundaryIs>
                </Polygon>
                <Polygon>
                  <altitudeMode>absolute</altitudeMode>
                  <outerBoundaryIs>
                    <LinearRing>
                      <coordinates>8.505650000000001,47.37755,607.7413893796152 8.505650000000001,47.37755,637.7313893796152 8.504950000000001,47.37755,637.7313893796152 8.504950000000001,47.37755,607.7413893796152</coordinates>
                    </LinearRing>
                  </outerBoundaryIs>
                </Polygon>
              </MultiGeometry>
            </Placemark>
          </Folder>
          <Folder>
            <name>E38: uss1_core interuss.automated_testing.flight_planning.v1.UpsertFlightPlan</name>
            <Folder>
              <name>Activity Rejected, flight NotPlanned</name>
              <Placemark>
                <name>Volume 0</name>
                <styleUrl>#Planned_Nominal</styleUrl>
                <TimeSpan>
                  <begin>2025-11-07T08:22:47.799453+00:00</begin>
                  <end>2025-11-07T09:07:48.799453+00:00</end>
                </TimeSpan>
                <MultiGeometry>
                  <Polygon>
                    <altitudeMode>absolute</altitudeMode>
                    <outerBoundaryIs>
                      <LinearRing>
                        <coordinates>8.504950000000001,47.3776,607.7413693616395 8.504950000000001,47.377900000000004,607.7413693616395 8.505600000000001,47.377900000000004,607.7413693616395 8.505650000000001,47.37755,607.7413693616395</coordinates>
                      </LinearRing>
                    </outerBoundaryIs>
                  </Polygon>
                  <Polygon>
                    <altitudeMode>absolute</altitudeMode>
                    <outerBoundaryIs>
                      <LinearRing>
                        <coordinates>8.504950000000001,47.3776,637.7313693616395 8.504950000000001,47.377900000000004,637.7313693616395 8.505600000000001,47.377900000000004,637.7313693616395 8.505650000000001,47.37755,637.7313693616395</coordinates>
                      </LinearRing>
                    </outerBoundaryIs>
                  </Polygon>
                  <Polygon>
                    <altitudeMode>absolute</altitudeMode>
                    <outerBoundaryIs>
                      <LinearRing>
                        <coordinates>8.504950000000001,47.3776,607.7413693616395 8.504950000000001,47.3776,637.7313693616395 8.504950000000001,47.377900000000004,637.7313693616395 8.504950000000001,47.377900000000004,607.7413693616395</coordinates>
                      </LinearRing>
                    </outerBoundaryIs>
                  </Polygon>
                  <Polygon>
                    <altitudeMode>absolute</altitudeMode>
                    <outerBoundaryIs>
                      <LinearRing>
                        <coordinates>8.504950000000001,47.377900000000004,607.7413693616395 8.504950000000001,47.377900000000004,637.7313693616395 8.505600000000001,47.377900000000004,637.7313693616395 8.505600000000001,47.377900000000004,607.7413693616395</coordinates>
                      </LinearRing>
                    </outerBoundaryIs>
                  </Polygon>
                  <Polygon>
                    <altitudeMode>absolute</altitudeMode>
                    <outerBoundaryIs>
                      <LinearRing>
                        <coordinates>8.505600000000001,47.377900000000004,607.7413693616395 8.505600000000001,47.377900000000004,637.7313693616395 8.505650000000001,47.37755,637.7313693616395 8.505650000000001,47.37755,607.7413693616395</coordinates>
                      </LinearRing>
                    </outerBoundaryIs>
                  </Polygon>
                  <Polygon>
                    <altitudeMode>absolute</altitudeMode>
                    <outerBoundaryIs>
                      <LinearRing>
                        <coordinates>8.505650000000001,47.37755,607.7413693616395 8.505650000000001,47.37755,637.7313693616395 8.504950000000001,47.3776,637.7313693616395 8.504950000000001,47.3776,607.7413693616395</coordinates>
                      </LinearRing>
                    </outerBoundaryIs>
                  </Polygon>
                </MultiGeometry>
              </Placemark>
            </Folder>
          </Folder>
          <Folder>
            <name>E41: uss1_dss astm.f3548.v21.dss.queryOperationalIntentReferences</name>
            <Placemark>
              <name>area_of_interest</name>
              <styleUrl>#QueryArea</styleUrl>
              <description><![CDATA[<ul><li>fake_uss's Activated 283ba615-55f6-4b71-925f-e6a51c973423[2]</li></ul>]]></description>
              <TimeSpan>
                <begin>2025-11-07T08:22:47.799453+00:00</begin>
                <end>2025-11-07T09:07:48.799453+00:00</end>
              </TimeSpan>
              <MultiGeometry>
                <Polygon>
                  <altitudeMode>absolute</altitudeMode>
                  <outerBoundaryIs>
                    <LinearRing>
                      <coordinates>8.504950000000001,47.37755,607.7413893796152 8.504950000000001,47.377900000000004,607.7413893796152 8.505650000000001,47.377900000000004,607.7413893796152 8.505650000000001,47.37755,607.7413893796152</coordinates>
                    </LinearRing>
                  </outerBoundaryIs>
                </Polygon>
                <Polygon>
                  <altitudeMode>absolute</altitudeMode>
                  <outerBoundaryIs>
                    <LinearRing>
                      <coordinates>8.504950000000001,47.37755,637.7313893796152 8.504950000000001,47.377900000000004,637.7313893796152 8.505650000000001,47.377900000000004,637.7313893796152 8.505650000000001,47.37755,637.7313893796152</coordinates>
                    </LinearRing>
                  </outerBoundaryIs>
                </Polygon>
                <Polygon>
                  <altitudeMode>absolute</altitudeMode>
                  <outerBoundaryIs>
                    <LinearRing>
                      <coordinates>8.504950000000001,47.37755,607.7413893796152 8.504950000000001,47.37755,637.7313893796152 8.504950000000001,47.377900000000004,637.7313893796152 8.504950000000001,47.377900000000004,607.7413893796152</coordinates>
                    </LinearRing>
                  </outerBoundaryIs>
                </Polygon>
                <Polygon>
                  <altitudeMode>absolute</altitudeMode>
                  <outerBoundaryIs>
                    <LinearRing>
                      <coordinates>8.504950000000001,47.377900000000004,607.7413893796152 8.504950000000001,47.377900000000004,637.7313893796152 8.505650000000001,47.377900000000004,637.7313893796152 8.505650000000001,47.377900000000004,607.7413893796152</coordinates>
                    </LinearRing>
                  </outerBoundaryIs>
                </Polygon>
                <Polygon>
                  <altitudeMode>absolute</altitudeMode>
                  <outerBoundaryIs>
                    <LinearRing>
                      <coordinates>8.505650000000001,47.377900000000004,607.7413893796152 8.505650000000001,47.377900000000004,637.7313893796152 8.505650000000001,47.37755,637.7313893796152 8.505650000000001,47.37755,607.7413893796152</coordinates>
                    </LinearRing>
                  </outerBoundaryIs>
                </Polygon>
                <Polygon>
                  <altitudeMode>absolute</altitudeMode>
                  <outerBoundaryIs>
                    <LinearRing>
                      <coordinates>8.505650000000001,47.37755,607.7413893796152 8.505650000000001,47.37755,637.7313893796152 8.504950000000001,47.37755,637.7313893796152 8.504950000000001,47.37755,607.7413893796152</coordinates>
                    </LinearRing>
                  </outerBoundaryIs>
                </Polygon>
              </MultiGeometry>
            </Placemark>
          </Folder>
        </Folder>
      </Folder>
      <Folder>
        <name>Attempt to activate flight into conflict</name>
        <Folder>
          <name>Attempt to directly activate conflicting Flight 1</name>
          <Folder>
            <name>E44: uss1_dss astm.f3548.v21.dss.queryOperationalIntentReferences</name>
            <Placemark>
              <name>area_of_interest</name>
              <styleUrl>#QueryArea</styleUrl>
              <description><![CDATA[<ul><li>fake_uss's Activated 283ba615-55f6-4b71-925f-e6a51c973423[2]</li></ul>]]></description>
              <TimeSpan>
                <begin>2025-11-07T08:22:48.141462+00:00</begin>
                <end>2025-11-07T09:07:49.141462+00:00</end>
              </TimeSpan>
              <MultiGeometry>
                <Polygon>
                  <altitudeMode>absolute</altitudeMode>
                  <outerBoundaryIs>
                    <LinearRing>
                      <coordinates>8.504950000000001,47.37755,607.7513893796151 8.504950000000001,47.377900000000004,607.7513893796151 8.505650000000001,47.377900000000004,607.7513893796151 8.505650000000001,47.37755,607.7513893796151</coordinates>
                    </LinearRing>
                  </outerBoundaryIs>
                </Polygon>
                <Polygon>
                  <altitudeMode>absolute</altitudeMode>
                  <outerBoundaryIs>
                    <LinearRing>
                      <coordinates>8.504950000000001,47.37755,637.7313893796152 8.504950000000001,47.377900000000004,637.7313893796152 8.505650000000001,47.377900000000004,637.7313893796152 8.505650000000001,47.37755,637.7313893796152</coordinates>
                    </LinearRing>
                  </outerBoundaryIs>
                </Polygon>
                <Polygon>
                  <altitudeMode>absolute</altitudeMode>
                  <outerBoundaryIs>
                    <LinearRing>
                      <coordinates>8.504950000000001,47.37755,607.7513893796151 8.504950000000001,47.37755,637.7313893796152 8.504950000000001,47.377900000000004,637.7313893796152 8.504950000000001,47.377900000000004,607.7513893796151</coordinates>
                    </LinearRing>
                  </outerBoundaryIs>
                </Polygon>
                <Polygon>
                  <altitudeMode>absolute</altitudeMode>
                  <outerBoundaryIs>
                    <LinearRing>
                      <coordinates>8.504950000000001,47.377900000000004,607.7513893796151 8.504950000000001,47.377900000000004,637.7313893796152 8.505650000000001,47.377900000000004,637.7313893796152 8.505650000000001,47.377900000000004,607.7513893796151</coordinates>
                    </LinearRing>
                  </outerBoundaryIs>
                </Polygon>
                <Polygon>
                  <altitudeMode>absolute</altitudeMode>
                  <outerBoundaryIs>
                    <LinearRing>
                      <coordinates>8.505650000000001,47.377900000000004,607.7513893796151 8.505650000000001,47.377900000000004,637.7313893796152 8.505650000000001,47.37755,637.7313893796152 8.505650000000001,47.37755,607.7513893796151</coordinates>
                    </LinearRing>
                  </outerBoundaryIs>
                </Polygon>
                <Polygon>
                  <altitudeMode>absolute</altitudeMode>
                  <outerBoundaryIs>
                    <LinearRing>
                      <coordinates>8.505650000000001,47.37755,607.7513893796151 8.505650000000001,47.37755,637.7313893796152 8.504950000000001,47.37755,637.7313893796152 8.504950000000001,47.37755,607.7513893796151</coordinates>
                    </LinearRing>
                  </outerBoundaryIs>
                </Polygon>
              </MultiGeometry>
            </Placemark>
          </Folder>
          <Folder>
            <name>E46: uss1_core interuss.automated_testing.flight_planning.v1.UpsertFlightPlan</name>
            <Folder>
              <name>Activity Rejected, flight NotPlanned</name>
              <Placemark>
                <name>Volume 0</name>
                <styleUrl>#InUse_Nominal</styleUrl>
                <TimeSpan>
                  <begin>2025-11-07T08:22:48.141462+00:00</begin>
                  <end>2025-11-07T09:07:49.141462+00:00</end>
                </TimeSpan>
                <MultiGeometry>
                  <Polygon>
                    <altitudeMode>absolute</altitudeMode>
                    <outerBoundaryIs>
                      <LinearRing>
                        <coordinates>8.504950000000001,47.3776,607.7513693616395 8.504950000000001,47.377900000000004,607.7513693616395 8.505600000000001,47.377900000000004,607.7513693616395 8.505650000000001,47.37755,607.7513693616395</coordinates>
                      </LinearRing>
                    </outerBoundaryIs>
                  </Polygon>
                  <Polygon>
                    <altitudeMode>absolute</altitudeMode>
                    <outerBoundaryIs>
                      <LinearRing>
                        <coordinates>8.504950000000001,47.3776,637.7313693616395 8.504950000000001,47.377900000000004,637.7313693616395 8.505600000000001,47.377900000000004,637.7313693616395 8.505650000000001,47.37755,637.7313693616395</coordinates>
                      </LinearRing>
                    </outerBoundaryIs>
                  </Polygon>
                  <Polygon>
                    <altitudeMode>absolute</altitudeMode>
                    <outerBoundaryIs>
                      <LinearRing>
                        <coordinates>8.504950000000001,47.3776,607.7513693616395 8.504950000000001,47.3776,637.7313693616395 8.504950000000001,47.377900000000004,637.7313693616395 8.504950000000001,47.377900000000004,607.7513693616395</coordinates>
                      </LinearRing>
                    </outerBoundaryIs>
                  </Polygon>
                  <Polygon>
                    <altitudeMode>absolute</altitudeMode>
                    <outerBoundaryIs>
                      <LinearRing>
                        <coordinates>8.504950000000001,47.377900000000004,607.7513693616395 8.504950000000001,47.377900000000004,637.7313693616395 8.505600000000001,47.377900000000004,637.7313693616395 8.505600000000001,47.377900000000004,607.7513693616395</coordinates>
                      </LinearRing>
                    </outerBoundaryIs>
                  </Polygon>
                  <Polygon>
                    <altitudeMode>absolute</altitudeMode>
                    <outerBoundaryIs>
                      <LinearRing>
                        <coordinates>8.505600000000001,47.377900000000004,607.7513693616395 8.505600000000001,47.377900000000004,637.7313693616395 8.505650000000001,47.37755,637.7313693616395 8.505650000000001,47.37755,607.7513693616395</coordinates>
                      </LinearRing>
                    </outerBoundaryIs>
                  </Polygon>
                  <Polygon>
                    <altitudeMode>absolute</altitudeMode>
                    <outerBoundaryIs>
                      <LinearRing>
                        <coordinates>8.505650000000001,47.37755,607.7513693616395 8.505650000000001,47.37755,637.7313693616395 8.504950000000001,47.3776,637.7313693616395 8.504950000000001,47.3776,607.7513693616395</coordinates>
                      </LinearRing>
                    </outerBoundaryIs>
                  </Polygon>
                </MultiGeometry>
              </Placemark>
            </Folder>
          </Folder>
          <Folder>
            <name>E49: uss1_dss astm.f3548.v21.dss.queryOperationalIntentReferences</name>
            <Placemark>
              <name>area_of_interest</name>
              <styleUrl>#QueryArea</styleUrl>
              <description><![CDATA[<ul><li>fake_uss's Activated 283ba615-55f6-4b71-925f-e6a51c973423[2]</li></ul>]]></description>
              <TimeSpan>
                <begin>2025-11-07T08:22:48.141462+00:00</begin>
                <end>2025-11-07T09:07:49.141462+00:00</end>
              </TimeSpan>
              <MultiGeometry>
                <Polygon>
                  <altitudeMode>absolute</altitudeMode>
                  <outerBoundaryIs>
                    <LinearRing>
                      <coordinates>8.504950000000001,47.37755,607.7513893796151 8.504950000000001,47.377900000000004,607.7513893796151 8.505650000000001,47.377900000000004,607.7513893796151 8.505650000000001,47.37755,607.7513893796151</coordinates>
                    </LinearRing>
                  </outerBoundaryIs>
                </Polygon>
                <Polygon>
                  <altitudeMode>absolute</altitudeMode>
                  <outerBoundaryIs>
                    <LinearRing>
                      <coordinates>8.504950000000001,47.37755,637.7313893796152 8.504950000000001,47.377900000000004,637.7313893796152 8.505650000000001,47.377900000000004,637.7313893796152 8.505650000000001,47.37755,637.7313893796152</coordinates>
                    </LinearRing>
                  </outerBoundaryIs>
                </Polygon>
                <Polygon>
                  <altitudeMode>absolute</altitudeMode>
                  <outerBoundaryIs>
                    <LinearRing>
                      <coordinates>8.504950000000001,47.37755,607.7513893796151 8.504950000000001,47.37755,637.7313893796152 8.504950000000001,47.377900000000004,637.7313893796152 8.504950000000001,47.377900000000004,607.7513893796151</coordinates>
                    </LinearRing>
                  </outerBoundaryIs>
                </Polygon>
                <Polygon>
                  <altitudeMode>absolute</altitudeMode>
                  <outerBoundaryIs>
                    <LinearRing>
                      <coordinates>8.504950000000001,47.377900000000004,607.7513893796151 8.504950000000001,47.377900000000004,637.7313893796152 8.505650000000001,47.377900000000004,637.7313893796152 8.505650000000001,47.377900000000004,607.7513893796151</coordinates>
                    </LinearRing>
                  </outerBoundaryIs>
                </Polygon>
                <Polygon>
                  <altitudeMode>absolute</altitudeMode>
                  <outerBoundaryIs>
                    <LinearRing>
                      <coordinates>8.505650000000001,47.377900000000004,607.7513893796151 8.505650000000001,47.377900000000004,637.7313893796152 8.505650000000001,47.37755,637.7313893796152 8.505650000000001,47.37755,607.7513893796151</coordinates>
                    </LinearRing>
                  </outerBoundaryIs>
                </Polygon>
                <Polygon>
                  <altitudeMode>absolute</altitudeMode>
                  <outerBoundaryIs>
                    <LinearRing>
                      <coordinates>8.505650000000001,47.37755,607.7513893796151 8.505650000000001,47.37755,637.7313893796152 8.504950000000001,47.37755,637.7313893796152 8.504950000000001,47.37755,607.7513893796151</coordinates>
                    </LinearRing>
                  </outerBoundaryIs>
                </Polygon>
              </MultiGeometry>
            </Placemark>
          </Folder>
        </Folder>
      </Folder>
      <Folder>
        <name>Attempt to modify planned flight into conflict</name>
        <Folder>
          <name>Plan Flight 1c</name>
          <Folder>
            <name>E52: uss1_dss astm.f3548.v21.dss.queryOperationalIntentReferences</name>
            <Placemark>
              <name>area_of_interest</name>
              <styleUrl>#QueryArea</styleUrl>
              <description><![CDATA[<ul><li>fake_uss's Activated 283ba615-55f6-4b71-925f-e6a51c973423[2]</li></ul>]]></description>
              <TimeSpan>
                <begin>2025-11-07T08:22:48.354155+00:00</begin>
                <end>2025-11-07T09:07:49.354155+00:00</end>
              </TimeSpan>
              <MultiGeometry>
                <Polygon>
                  <altitudeMode>absolute</altitudeMode>
                  <outerBoundaryIs>
                    <LinearRing>
                      <coordinates>8.5054,47.37755,602.6916931273757 8.5054,47.377900000000004,602.6916931273757 8.505650000000001,47.377900000000004,602.6916931273757 8.505650000000001,47.37755,602.6916931273757</coordinates>
                    </LinearRing>
                  </outerBoundaryIs>
                </Polygon>
                <Polygon>
                  <altitudeMode>absolute</altitudeMode>
                  <outerBoundaryIs>
                    <LinearRing>
                      <coordinates>8.5054,47.37755,642.7316931273757 8.5054,47.377900000000004,642.7316931273757 8.505650000000001,47.377900000000004,642.7316931273757 8.505650000000001,47.37755,642.7316931273757</coordinates>
                    </LinearRing>
                  </outerBoundaryIs>
                </Polygon>
                <Polygon>
                  <altitudeMode>absolute</altitudeMode>
                  <outerBoundaryIs>
                    <LinearRing>
                      <coordinates>8.5054,47.37755,602.6916931273757 8.5054,47.37755,642.7316931273757 8.5054,47.377900000000004,642.7316931273757 8.5054,47.377900000000004,602.6916931273757</coordinates>
                    </LinearRing>
                  </outerBoundaryIs>
                </Polygon>
                <Polygon>
                  <altitudeMode>absolute</altitudeMode>
                  <outerBoundaryIs>
                    <LinearRing>
                      <coordinates>8.5054,47.377900000000004,602.6916931273757 8.5054,47.377900000000004,642.7316931273757 8.505650000000001,47.377900000000004,642.7316931273757 8.505650000000001,47.377900000000004,602.6916931273757</coordinates>
                    </LinearRing>
                  </outerBoundaryIs>
                </Polygon>
                <Polygon>
                  <altitudeMode>absolute</altitudeMode>
                  <outerBoundaryIs>
                    <LinearRing>
                      <coordinates>8.505650000000001,47.377900000000004,602.6916931273757 8.505650000000001,47.377900000000004,642.7316931273757 8.505650000000001,47.37755,642.7316931273757 8.505650000000001,47.37755,602.6916931273757</coordinates>
                    </LinearRing>
                  </outerBoundaryIs>
                </Polygon>
                <Polygon>
                  <altitudeMode>absolute</altitudeMode>
                  <outerBoundaryIs>
                    <LinearRing>
                      <coordinates>8.505650000000001,47.37755,602.6916931273757 8.505650000000001,47.37755,642.7316931273757 8.5054,47.37755,642.7316931273757 8.5054,47.37755,602.6916931273757</coordinates>
                    </LinearRing>
                  </outerBoundaryIs>
                </Polygon>
              </MultiGeometry>
            </Placemark>
          </Folder>
          <Folder>
            <name>E54: uss1_core interuss.automated_testing.flight_planning.v1.UpsertFlightPlan</name>
            <Folder>
              <name>Activity Rejected, flight NotPlanned</name>
              <Placemark>
                <name>Volume 0</name>
                <styleUrl>#Planned_Nominal</styleUrl>
                <TimeSpan>
                  <begin>2025-11-07T08:22:48.354155+00:00</begin>
                  <end>2025-11-07T09:07:49.354155+00:00</end>
                </TimeSpan>
                <MultiGeometry>
                  <Polygon>
                    <altitudeMode>absolute</altitudeMode>
                    <outerBoundaryIs>
                      <LinearRing>
                        <coordinates>8.5054,47.3776,602.6916731157153 8.5054,47.377900000000004,602.6916731157153 8.505600000000001,47.377900000000004,602.6916731157153 8.505650000000001,47.37755,602.6916731157153</coordinates>
                      </LinearRing>
                    </outerBoundaryIs>
                  </Polygon>
                  <Polygon>
                    <altitudeMode>absolute</altitudeMode>
                    <outerBoundaryIs>
                      <LinearRing>
                        <coordinates>8.5054,47.3776,642.7316731157152 8.5054,47.377900000000004,642.7316731157152 8.505600000000001,47.377900000000004,642.7316731157152 8.505650000000001,47.37755,642.7316731157152</coordinates>
                      </LinearRing>
                    </outerBoundaryIs>
                  </Polygon>
                  <Polygon>
                    <altitudeMode>absolute</altitudeMode>
                    <outerBoundaryIs>
                      <LinearRing>
                        <coordinates>8.5054,47.3776,602.6916731157153 8.5054,47.3776,642.7316731157152 8.5054,47.377900000000004,642.7316731157152 8.5054,47.377900000000004,602.6916731157153</coordinates>
                      </LinearRing>
                    </outerBoundaryIs>
                  </Polygon>
                  <Polygon>
                    <altitudeMode>absolute</altitudeMode>
                    <outerBoundaryIs>
                      <LinearRing>
                        <coordinates>8.5054,47.377900000000004,602.6916731157153 8.5054,47.377900000000004,642.7316731157152 8.505600000000001,47.377900000000004,642.7316731157152 8.505600000000001,47.377900000000004,602.6916731157153</coordinates>
                      </LinearRing>
                    </outerBoundaryIs>
                  </Polygon>
                  <Polygon>
                    <altitudeMode>absolute</altitudeMode>
                    <outerBoundaryIs>
                      <LinearRing>
                        <coordinates>8.505600000000001,47.377900000000004,602.6916731157153 8.505600000000001,47.377900000000004,642.7316731157152 8.505650000000001,47.37755,642.7316731157152 8.505650000000001,47.37755,602.6916731157153</coordinates>
                      </LinearRing>
                    </outerBoundaryIs>
                  </Polygon>
                  <Polygon>
                    <altitudeMode>absolute</altitudeMode>
                    <outerBoundaryIs>
                      <LinearRing>
                        <coordinates>8.505650000000001,47.37755,602.6916731157153 8.505650000000001,47.37755,642.7316731157152 8.5054,47.3776,642.7316731157152 8.5054,47.3776,602.6916731157153</coordinates>
                      </LinearRing>
                    </outerBoundaryIs>
                  </Polygon>
                </MultiGeometry>
              </Placemark>
            </Folder>
          </Folder>
        </Folder>
      </Folder>
      <Folder>
        <name/>
        <Folder>
          <name>Cleanup</name>
        </Folder>
      </Folder>
    </Folder>
  </Document>
</kml>
