<kml xmlns="http://www.opengis.net/kml/2.2" xmlns:atom="http://www.w3.org/2005/Atom" xmlns:gx="http://www.google.com/kml/ext/2.2">
  <Document>
    <Style id="QueryArea">
      <LineStyle>
        <color>ffc0c000</color>
        <width>3</width>
      </LineStyle>
      <PolyStyle>
        <color>80ffffaa</color>
      </PolyStyle>
    </Style>
    <Style id="F3548v21Accepted">
      <LineStyle>
        <color>ff00c000</color>
        <width>3</width>
      </LineStyle>
      <PolyStyle>
        <color>80c0c0c0</color>
      </PolyStyle>
    </Style>
    <Style id="F3548v21Activated">
      <LineStyle>
        <color>ff00c000</color>
        <width>3</width>
      </LineStyle>
      <PolyStyle>
        <color>8000ff00</color>
      </PolyStyle>
    </Style>
    <Style id="F3548v21Nonconforming">
      <LineStyle>
        <color>ff00ffff</color>
        <width>5</width>
      </LineStyle>
      <PolyStyle>
        <color>8000ffff</color>
      </PolyStyle>
    </Style>
    <Style id="F3548v21Contingent">
      <LineStyle>
        <color>ff0000ff</color>
        <width>5</width>
      </LineStyle>
      <PolyStyle>
        <color>80ff0000ff</color>
      </PolyStyle>
    </Style>
    <Style id="F3548v21AcceptedFuture">
      <LineStyle>
        <color>80c0c0c0</color>
        <width>1</width>
      </LineStyle>
      <PolyStyle>
        <color>00000000</color>
      </PolyStyle>
    </Style>
    <Style id="F3548v21ActivatedFuture">
      <LineStyle>
        <color>8040c040</color>
        <width>1</width>
      </LineStyle>
      <PolyStyle>
        <color>00000000</color>
      </PolyStyle>
    </Style>
    <Style id="F3548v21NonconformingFuture">
      <LineStyle>
        <color>8000ffff</color>
        <width>1</width>
      </LineStyle>
      <PolyStyle>
        <color>00000000</color>
      </PolyStyle>
    </Style>
    <Style id="F3548v21ContingentFuture">
      <LineStyle>
        <color>80ff0000ff</color>
        <width>1</width>
      </LineStyle>
      <PolyStyle>
        <color>00000000</color>
      </PolyStyle>
    </Style>
    <Style id="Planned_Nominal">
      <LineStyle>
        <color>ff00c000</color>
        <width>3</width>
      </LineStyle>
      <PolyStyle>
        <color>80808080</color>
      </PolyStyle>
    </Style>
    <Style id="InUse_Nominal">
      <LineStyle>
        <color>ff00c000</color>
        <width>3</width>
      </LineStyle>
      <PolyStyle>
        <color>8000ff00</color>
      </PolyStyle>
    </Style>
    <Style id="InUse_OffNominal">
      <LineStyle>
        <color>ff00ffff</color>
        <width>5</width>
      </LineStyle>
      <PolyStyle>
        <color>8000ff00</color>
      </PolyStyle>
    </Style>
    <Style id="InUse_Contingent">
      <LineStyle>
        <color>ff0000ff</color>
        <width>5</width>
      </LineStyle>
      <PolyStyle>
        <color>8000ff00</color>
      </PolyStyle>
    </Style>
    <Folder>
      <name>Data Validation of GET operational intents by USS</name>
      <Folder>
        <name>Successfully plan flight near an existing flight</name>
        <Folder>
          <name>mock_uss plans flight 2</name>
          <Folder>
            <name>E2: uss1_dss astm.f3548.v21.dss.queryOperationalIntentReferences</name>
            <Placemark>
              <name>area_of_interest</name>
              <styleUrl>#QueryArea</styleUrl>
              <description><![CDATA[(no operational intent references found)]]></description>
              <TimeSpan>
                <begin>2026-05-11T08:07:26.319036+00:00</begin>
                <end>2026-05-11T08:52:26.319036+00:00</end>
              </TimeSpan>
              <MultiGeometry>
                <Polygon>
                  <altitudeMode>absolute</altitudeMode>
                  <outerBoundaryIs>
                    <LinearRing>
                      <coordinates>8.49475,47.373490000000004,607.7257822344204 8.49475,47.3855,607.7257822344204 8.50826,47.3855,607.7257822344204 8.50826,47.373490000000004,607.7257822344204</coordinates>
                    </LinearRing>
                  </outerBoundaryIs>
                </Polygon>
                <Polygon>
                  <altitudeMode>absolute</altitudeMode>
                  <outerBoundaryIs>
                    <LinearRing>
                      <coordinates>8.49475,47.373490000000004,665.7257822344204 8.49475,47.3855,665.7257822344204 8.50826,47.3855,665.7257822344204 8.50826,47.373490000000004,665.7257822344204</coordinates>
                    </LinearRing>
                  </outerBoundaryIs>
                </Polygon>
                <Polygon>
                  <altitudeMode>absolute</altitudeMode>
                  <outerBoundaryIs>
                    <LinearRing>
                      <coordinates>8.49475,47.373490000000004,607.7257822344204 8.49475,47.373490000000004,665.7257822344204 8.49475,47.3855,665.7257822344204 8.49475,47.3855,607.7257822344204</coordinates>
                    </LinearRing>
                  </outerBoundaryIs>
                </Polygon>
                <Polygon>
                  <altitudeMode>absolute</altitudeMode>
                  <outerBoundaryIs>
                    <LinearRing>
                      <coordinates>8.49475,47.3855,607.7257822344204 8.49475,47.3855,665.7257822344204 8.50826,47.3855,665.7257822344204 8.50826,47.3855,607.7257822344204</coordinates>
                    </LinearRing>
                  </outerBoundaryIs>
                </Polygon>
                <Polygon>
                  <altitudeMode>absolute</altitudeMode>
                  <outerBoundaryIs>
                    <LinearRing>
                      <coordinates>8.50826,47.3855,607.7257822344204 8.50826,47.3855,665.7257822344204 8.50826,47.373490000000004,665.7257822344204 8.50826,47.373490000000004,607.7257822344204</coordinates>
                    </LinearRing>
                  </outerBoundaryIs>
                </Polygon>
                <Polygon>
                  <altitudeMode>absolute</altitudeMode>
                  <outerBoundaryIs>
                    <LinearRing>
                      <coordinates>8.50826,47.373490000000004,607.7257822344204 8.50826,47.373490000000004,665.7257822344204 8.49475,47.373490000000004,665.7257822344204 8.49475,47.373490000000004,607.7257822344204</coordinates>
                    </LinearRing>
                  </outerBoundaryIs>
                </Polygon>
              </MultiGeometry>
            </Placemark>
          </Folder>
          <Folder>
            <name>E4: mock_uss interuss.automated_testing.flight_planning.v1.UpsertFlightPlan</name>
            <Folder>
              <name>Activity Completed, flight Planned</name>
              <Placemark>
                <name>Volume 0</name>
                <styleUrl>#Planned_Nominal</styleUrl>
                <TimeSpan>
                  <begin>2026-05-11T08:07:26.319036+00:00</begin>
                  <end>2026-05-11T08:52:26.319036+00:00</end>
                </TimeSpan>
                <MultiGeometry>
                  <Polygon>
                    <altitudeMode>absolute</altitudeMode>
                    <outerBoundaryIs>
                      <LinearRing>
                        <coordinates>8.50445,47.3855,607.7282411635941 8.50826,47.38376,607.7282411635941 8.505690000000001,47.373490000000004,607.7282411635941 8.49475,47.38533,607.7282411635941 8.505230000000001,47.37755,607.7282411635941</coordinates>
                      </LinearRing>
                    </outerBoundaryIs>
                  </Polygon>
                  <Polygon>
                    <altitudeMode>absolute</altitudeMode>
                    <outerBoundaryIs>
                      <LinearRing>
                        <coordinates>8.50445,47.3855,665.7282411635941 8.50826,47.38376,665.7282411635941 8.505690000000001,47.373490000000004,665.7282411635941 8.49475,47.38533,665.7282411635941 8.505230000000001,47.37755,665.7282411635941</coordinates>
                      </LinearRing>
                    </outerBoundaryIs>
                  </Polygon>
                  <Polygon>
                    <altitudeMode>absolute</altitudeMode>
                    <outerBoundaryIs>
                      <LinearRing>
                        <coordinates>8.50445,47.3855,607.7282411635941 8.50445,47.3855,665.7282411635941 8.50826,47.38376,665.7282411635941 8.50826,47.38376,607.7282411635941</coordinates>
                      </LinearRing>
                    </outerBoundaryIs>
                  </Polygon>
                  <Polygon>
                    <altitudeMode>absolute</altitudeMode>
                    <outerBoundaryIs>
                      <LinearRing>
                        <coordinates>8.50826,47.38376,607.7282411635941 8.50826,47.38376,665.7282411635941 8.505690000000001,47.373490000000004,665.7282411635941 8.505690000000001,47.373490000000004,607.7282411635941</coordinates>
                      </LinearRing>
                    </outerBoundaryIs>
                  </Polygon>
                  <Polygon>
                    <altitudeMode>absolute</altitudeMode>
                    <outerBoundaryIs>
                      <LinearRing>
                        <coordinates>8.505690000000001,47.373490000000004,607.7282411635941 8.505690000000001,47.373490000000004,665.7282411635941 8.49475,47.38533,665.7282411635941 8.49475,47.38533,607.7282411635941</coordinates>
                      </LinearRing>
                    </outerBoundaryIs>
                  </Polygon>
                  <Polygon>
                    <altitudeMode>absolute</altitudeMode>
                    <outerBoundaryIs>
                      <LinearRing>
                        <coordinates>8.49475,47.38533,607.7282411635941 8.49475,47.38533,665.7282411635941 8.505230000000001,47.37755,665.7282411635941 8.505230000000001,47.37755,607.7282411635941</coordinates>
                      </LinearRing>
                    </outerBoundaryIs>
                  </Polygon>
                  <Polygon>
                    <altitudeMode>absolute</altitudeMode>
                    <outerBoundaryIs>
                      <LinearRing>
                        <coordinates>8.505230000000001,47.37755,607.7282411635941 8.505230000000001,47.37755,665.7282411635941 8.50445,47.3855,665.7282411635941 8.50445,47.3855,607.7282411635941</coordinates>
                      </LinearRing>
                    </outerBoundaryIs>
                  </Polygon>
                </MultiGeometry>
              </Placemark>
            </Folder>
          </Folder>
          <Folder>
            <name>E7: uss1_dss astm.f3548.v21.dss.queryOperationalIntentReferences</name>
            <Placemark>
              <name>area_of_interest</name>
              <styleUrl>#QueryArea</styleUrl>
              <description><![CDATA[<ul><li>uss6's Accepted a2441e96-7eca-4535-8aa2-2ba6d89a51fd[1]</li></ul>]]></description>
              <TimeSpan>
                <begin>2026-05-11T08:07:26.319036+00:00</begin>
                <end>2026-05-11T08:52:26.319036+00:00</end>
              </TimeSpan>
              <MultiGeometry>
                <Polygon>
                  <altitudeMode>absolute</altitudeMode>
                  <outerBoundaryIs>
                    <LinearRing>
                      <coordinates>8.49475,47.373490000000004,607.7257822344204 8.49475,47.3855,607.7257822344204 8.50826,47.3855,607.7257822344204 8.50826,47.373490000000004,607.7257822344204</coordinates>
                    </LinearRing>
                  </outerBoundaryIs>
                </Polygon>
                <Polygon>
                  <altitudeMode>absolute</altitudeMode>
                  <outerBoundaryIs>
                    <LinearRing>
                      <coordinates>8.49475,47.373490000000004,665.7257822344204 8.49475,47.3855,665.7257822344204 8.50826,47.3855,665.7257822344204 8.50826,47.373490000000004,665.7257822344204</coordinates>
                    </LinearRing>
                  </outerBoundaryIs>
                </Polygon>
                <Polygon>
                  <altitudeMode>absolute</altitudeMode>
                  <outerBoundaryIs>
                    <LinearRing>
                      <coordinates>8.49475,47.373490000000004,607.7257822344204 8.49475,47.373490000000004,665.7257822344204 8.49475,47.3855,665.7257822344204 8.49475,47.3855,607.7257822344204</coordinates>
                    </LinearRing>
                  </outerBoundaryIs>
                </Polygon>
                <Polygon>
                  <altitudeMode>absolute</altitudeMode>
                  <outerBoundaryIs>
                    <LinearRing>
                      <coordinates>8.49475,47.3855,607.7257822344204 8.49475,47.3855,665.7257822344204 8.50826,47.3855,665.7257822344204 8.50826,47.3855,607.7257822344204</coordinates>
                    </LinearRing>
                  </outerBoundaryIs>
                </Polygon>
                <Polygon>
                  <altitudeMode>absolute</altitudeMode>
                  <outerBoundaryIs>
                    <LinearRing>
                      <coordinates>8.50826,47.3855,607.7257822344204 8.50826,47.3855,665.7257822344204 8.50826,47.373490000000004,665.7257822344204 8.50826,47.373490000000004,607.7257822344204</coordinates>
                    </LinearRing>
                  </outerBoundaryIs>
                </Polygon>
                <Polygon>
                  <altitudeMode>absolute</altitudeMode>
                  <outerBoundaryIs>
                    <LinearRing>
                      <coordinates>8.50826,47.373490000000004,607.7257822344204 8.50826,47.373490000000004,665.7257822344204 8.49475,47.373490000000004,665.7257822344204 8.49475,47.373490000000004,607.7257822344204</coordinates>
                    </LinearRing>
                  </outerBoundaryIs>
                </Polygon>
              </MultiGeometry>
            </Placemark>
          </Folder>
          <Folder>
            <name>E11: mock_uss astm.f3548.v21.uss.getOperationalIntentDetails</name>
            <Folder>
              <name>uss6's P0 Accepted a2441e96-7eca-4535-8aa2-2ba6d89a51fd[1] @ MBl--J59nYvDjyuGSF8.N.FgNB6BounOPVSB9Y2XhQ4_</name>
              <Placemark>
                <name>Nominal volume 0</name>
                <styleUrl>#F3548v21Accepted</styleUrl>
                <TimeSpan>
                  <begin>2026-05-11T08:07:26.319036+00:00</begin>
                  <end>2026-05-11T08:52:26.319036+00:00</end>
                </TimeSpan>
                <MultiGeometry>
                  <Polygon>
                    <altitudeMode>absolute</altitudeMode>
                    <outerBoundaryIs>
                      <LinearRing>
                        <coordinates>8.50445,47.3855,607.7282411635941 8.50826,47.38376,607.7282411635941 8.505690000000001,47.373490000000004,607.7282411635941 8.49475,47.38533,607.7282411635941 8.505230000000001,47.37755,607.7282411635941</coordinates>
                      </LinearRing>
                    </outerBoundaryIs>
                  </Polygon>
                  <Polygon>
                    <altitudeMode>absolute</altitudeMode>
                    <outerBoundaryIs>
                      <LinearRing>
                        <coordinates>8.50445,47.3855,665.7282411635941 8.50826,47.38376,665.7282411635941 8.505690000000001,47.373490000000004,665.7282411635941 8.49475,47.38533,665.7282411635941 8.505230000000001,47.37755,665.7282411635941</coordinates>
                      </LinearRing>
                    </outerBoundaryIs>
                  </Polygon>
                  <Polygon>
                    <altitudeMode>absolute</altitudeMode>
                    <outerBoundaryIs>
                      <LinearRing>
                        <coordinates>8.50445,47.3855,607.7282411635941 8.50445,47.3855,665.7282411635941 8.50826,47.38376,665.7282411635941 8.50826,47.38376,607.7282411635941</coordinates>
                      </LinearRing>
                    </outerBoundaryIs>
                  </Polygon>
                  <Polygon>
                    <altitudeMode>absolute</altitudeMode>
                    <outerBoundaryIs>
                      <LinearRing>
                        <coordinates>8.50826,47.38376,607.7282411635941 8.50826,47.38376,665.7282411635941 8.505690000000001,47.373490000000004,665.7282411635941 8.505690000000001,47.373490000000004,607.7282411635941</coordinates>
                      </LinearRing>
                    </outerBoundaryIs>
                  </Polygon>
                  <Polygon>
                    <altitudeMode>absolute</altitudeMode>
                    <outerBoundaryIs>
                      <LinearRing>
                        <coordinates>8.505690000000001,47.373490000000004,607.7282411635941 8.505690000000001,47.373490000000004,665.7282411635941 8.49475,47.38533,665.7282411635941 8.49475,47.38533,607.7282411635941</coordinates>
                      </LinearRing>
                    </outerBoundaryIs>
                  </Polygon>
                  <Polygon>
                    <altitudeMode>absolute</altitudeMode>
                    <outerBoundaryIs>
                      <LinearRing>
                        <coordinates>8.49475,47.38533,607.7282411635941 8.49475,47.38533,665.7282411635941 8.505230000000001,47.37755,665.7282411635941 8.505230000000001,47.37755,607.7282411635941</coordinates>
                      </LinearRing>
                    </outerBoundaryIs>
                  </Polygon>
                  <Polygon>
                    <altitudeMode>absolute</altitudeMode>
                    <outerBoundaryIs>
                      <LinearRing>
                        <coordinates>8.505230000000001,47.37755,607.7282411635941 8.505230000000001,47.37755,665.7282411635941 8.50445,47.3855,665.7282411635941 8.50445,47.3855,607.7282411635941</coordinates>
                      </LinearRing>
                    </outerBoundaryIs>
                  </Polygon>
                </MultiGeometry>
              </Placemark>
            </Folder>
          </Folder>
        </Folder>
        <Folder>
          <name>tested_uss plans flight 1</name>
          <Folder>
            <name>E17: uss1_dss astm.f3548.v21.dss.queryOperationalIntentReferences</name>
            <Placemark>
              <name>area_of_interest</name>
              <styleUrl>#QueryArea</styleUrl>
              <description><![CDATA[<ul><li>uss6's Accepted a2441e96-7eca-4535-8aa2-2ba6d89a51fd[1]</li></ul>]]></description>
              <TimeSpan>
                <begin>2026-05-11T08:07:26.319036+00:00</begin>
                <end>2026-05-11T08:52:26.319036+00:00</end>
              </TimeSpan>
              <MultiGeometry>
                <Polygon>
                  <altitudeMode>absolute</altitudeMode>
                  <outerBoundaryIs>
                    <LinearRing>
                      <coordinates>8.496750000000002,47.3778,598.7240630801102 8.496750000000002,47.387190000000004,598.7240630801102 8.5051,47.387190000000004,598.7240630801102 8.5051,47.3778,598.7240630801102</coordinates>
                    </LinearRing>
                  </outerBoundaryIs>
                </Polygon>
                <Polygon>
                  <altitudeMode>absolute</altitudeMode>
                  <outerBoundaryIs>
                    <LinearRing>
                      <coordinates>8.496750000000002,47.3778,683.7240630801102 8.496750000000002,47.387190000000004,683.7240630801102 8.5051,47.387190000000004,683.7240630801102 8.5051,47.3778,683.7240630801102</coordinates>
                    </LinearRing>
                  </outerBoundaryIs>
                </Polygon>
                <Polygon>
                  <altitudeMode>absolute</altitudeMode>
                  <outerBoundaryIs>
                    <LinearRing>
                      <coordinates>8.496750000000002,47.3778,598.7240630801102 8.496750000000002,47.3778,683.7240630801102 8.496750000000002,47.387190000000004,683.7240630801102 8.496750000000002,47.387190000000004,598.7240630801102</coordinates>
                    </LinearRing>
                  </outerBoundaryIs>
                </Polygon>
                <Polygon>
                  <altitudeMode>absolute</altitudeMode>
                  <outerBoundaryIs>
                    <LinearRing>
                      <coordinates>8.496750000000002,47.387190000000004,598.7240630801102 8.496750000000002,47.387190000000004,683.7240630801102 8.5051,47.387190000000004,683.7240630801102 8.5051,47.387190000000004,598.7240630801102</coordinates>
                    </LinearRing>
                  </outerBoundaryIs>
                </Polygon>
                <Polygon>
                  <altitudeMode>absolute</altitudeMode>
                  <outerBoundaryIs>
                    <LinearRing>
                      <coordinates>8.5051,47.387190000000004,598.7240630801102 8.5051,47.387190000000004,683.7240630801102 8.5051,47.3778,683.7240630801102 8.5051,47.3778,598.7240630801102</coordinates>
                    </LinearRing>
                  </outerBoundaryIs>
                </Polygon>
                <Polygon>
                  <altitudeMode>absolute</altitudeMode>
                  <outerBoundaryIs>
                    <LinearRing>
                      <coordinates>8.5051,47.3778,598.7240630801102 8.5051,47.3778,683.7240630801102 8.496750000000002,47.3778,683.7240630801102 8.496750000000002,47.3778,598.7240630801102</coordinates>
                    </LinearRing>
                  </outerBoundaryIs>
                </Polygon>
              </MultiGeometry>
            </Placemark>
          </Folder>
          <Folder>
            <name>E19: uss2_core interuss.automated_testing.flight_planning.v1.UpsertFlightPlan</name>
            <Folder>
              <name>Activity Completed, flight Planned</name>
              <Placemark>
                <name>Volume 0</name>
                <styleUrl>#Planned_Nominal</styleUrl>
                <TimeSpan>
                  <begin>2026-05-11T08:07:26.319036+00:00</begin>
                  <end>2026-05-11T08:52:26.319036+00:00</end>
                </TimeSpan>
                <MultiGeometry>
                  <Polygon>
                    <altitudeMode>absolute</altitudeMode>
                    <outerBoundaryIs>
                      <LinearRing>
                        <coordinates>8.5051,47.3778,598.7248072128685 8.49675,47.38497,598.7248072128685 8.50146,47.387190000000004,598.7248072128685 8.50409,47.38601,598.7248072128685</coordinates>
                      </LinearRing>
                    </outerBoundaryIs>
                  </Polygon>
                  <Polygon>
                    <altitudeMode>absolute</altitudeMode>
                    <outerBoundaryIs>
                      <LinearRing>
                        <coordinates>8.5051,47.3778,683.7248072128685 8.49675,47.38497,683.7248072128685 8.50146,47.387190000000004,683.7248072128685 8.50409,47.38601,683.7248072128685</coordinates>
                      </LinearRing>
                    </outerBoundaryIs>
                  </Polygon>
                  <Polygon>
                    <altitudeMode>absolute</altitudeMode>
                    <outerBoundaryIs>
                      <LinearRing>
                        <coordinates>8.5051,47.3778,598.7248072128685 8.5051,47.3778,683.7248072128685 8.49675,47.38497,683.7248072128685 8.49675,47.38497,598.7248072128685</coordinates>
                      </LinearRing>
                    </outerBoundaryIs>
                  </Polygon>
                  <Polygon>
                    <altitudeMode>absolute</altitudeMode>
                    <outerBoundaryIs>
                      <LinearRing>
                        <coordinates>8.49675,47.38497,598.7248072128685 8.49675,47.38497,683.7248072128685 8.50146,47.387190000000004,683.7248072128685 8.50146,47.387190000000004,598.7248072128685</coordinates>
                      </LinearRing>
                    </outerBoundaryIs>
                  </Polygon>
                  <Polygon>
                    <altitudeMode>absolute</altitudeMode>
                    <outerBoundaryIs>
                      <LinearRing>
                        <coordinates>8.50146,47.387190000000004,598.7248072128685 8.50146,47.387190000000004,683.7248072128685 8.50409,47.38601,683.7248072128685 8.50409,47.38601,598.7248072128685</coordinates>
                      </LinearRing>
                    </outerBoundaryIs>
                  </Polygon>
                  <Polygon>
                    <altitudeMode>absolute</altitudeMode>
                    <outerBoundaryIs>
                      <LinearRing>
                        <coordinates>8.50409,47.38601,598.7248072128685 8.50409,47.38601,683.7248072128685 8.5051,47.3778,683.7248072128685 8.5051,47.3778,598.7248072128685</coordinates>
                      </LinearRing>
                    </outerBoundaryIs>
                  </Polygon>
                </MultiGeometry>
              </Placemark>
            </Folder>
          </Folder>
          <Folder>
            <name>E22: uss1_dss astm.f3548.v21.dss.queryOperationalIntentReferences</name>
            <Placemark>
              <name>area_of_interest</name>
              <styleUrl>#QueryArea</styleUrl>
              <description><![CDATA[<ul><li>uss6's Accepted a2441e96-7eca-4535-8aa2-2ba6d89a51fd[1]</li><li>fake_uss's Accepted ab41602e-50fa-4c33-8bc2-5c267609940c[1]</li></ul>]]></description>
              <TimeSpan>
                <begin>2026-05-11T08:07:26.319036+00:00</begin>
                <end>2026-05-11T08:52:26.319036+00:00</end>
              </TimeSpan>
              <MultiGeometry>
                <Polygon>
                  <altitudeMode>absolute</altitudeMode>
                  <outerBoundaryIs>
                    <LinearRing>
                      <coordinates>8.496750000000002,47.3778,598.7240630801102 8.496750000000002,47.387190000000004,598.7240630801102 8.5051,47.387190000000004,598.7240630801102 8.5051,47.3778,598.7240630801102</coordinates>
                    </LinearRing>
                  </outerBoundaryIs>
                </Polygon>
                <Polygon>
                  <altitudeMode>absolute</altitudeMode>
                  <outerBoundaryIs>
                    <LinearRing>
                      <coordinates>8.496750000000002,47.3778,683.7240630801102 8.496750000000002,47.387190000000004,683.7240630801102 8.5051,47.387190000000004,683.7240630801102 8.5051,47.3778,683.7240630801102</coordinates>
                    </LinearRing>
                  </outerBoundaryIs>
                </Polygon>
                <Polygon>
                  <altitudeMode>absolute</altitudeMode>
                  <outerBoundaryIs>
                    <LinearRing>
                      <coordinates>8.496750000000002,47.3778,598.7240630801102 8.496750000000002,47.3778,683.7240630801102 8.496750000000002,47.387190000000004,683.7240630801102 8.496750000000002,47.387190000000004,598.7240630801102</coordinates>
                    </LinearRing>
                  </outerBoundaryIs>
                </Polygon>
                <Polygon>
                  <altitudeMode>absolute</altitudeMode>
                  <outerBoundaryIs>
                    <LinearRing>
                      <coordinates>8.496750000000002,47.387190000000004,598.7240630801102 8.496750000000002,47.387190000000004,683.7240630801102 8.5051,47.387190000000004,683.7240630801102 8.5051,47.387190000000004,598.7240630801102</coordinates>
                    </LinearRing>
                  </outerBoundaryIs>
                </Polygon>
                <Polygon>
                  <altitudeMode>absolute</altitudeMode>
                  <outerBoundaryIs>
                    <LinearRing>
                      <coordinates>8.5051,47.387190000000004,598.7240630801102 8.5051,47.387190000000004,683.7240630801102 8.5051,47.3778,683.7240630801102 8.5051,47.3778,598.7240630801102</coordinates>
                    </LinearRing>
                  </outerBoundaryIs>
                </Polygon>
                <Polygon>
                  <altitudeMode>absolute</altitudeMode>
                  <outerBoundaryIs>
                    <LinearRing>
                      <coordinates>8.5051,47.3778,598.7240630801102 8.5051,47.3778,683.7240630801102 8.496750000000002,47.3778,683.7240630801102 8.496750000000002,47.3778,598.7240630801102</coordinates>
                    </LinearRing>
                  </outerBoundaryIs>
                </Polygon>
              </MultiGeometry>
            </Placemark>
          </Folder>
          <Folder>
            <name>E26: uss2_core astm.f3548.v21.uss.getOperationalIntentDetails</name>
            <Folder>
              <name>Error parsing response into GetOperationalIntentDetailsResponse</name>
              <description><![CDATA[Traceback (most recent call last):
  File "/app/monitoring/uss_qualifier/reports/sequence_view/kml.py", line 141, in make_scenario_kml
    kwargs["resp"] = ImplicitDict.parse(
                     ~~~~~~~~~~~~~~~~~~^
        event.query.response.json,
        ^^^^^^^^^^^^^^^^^^^^^^^^^^
        render_info.response_type,
        ^^^^^^^^^^^^^^^^^^^^^^^^^^
    )
    ^
  File "/venv/lib/python3.13/site-packages/implicitdict/__init__.py", line 110, in parse
    return parse_type(**kwargs)
  File "/venv/lib/python3.13/site-packages/implicitdict/__init__.py", line 144, in __init__
    raise ValueError(f'Required field "{key}" not specified in {subtype.__name__}')
ValueError: Required field "operational_intent" not specified in GetOperationalIntentDetailsResponse
]]></description>
            </Folder>
          </Folder>
        </Folder>
      </Folder>
      <Folder>
        <name/>
        <Folder>
          <name>Cleanup</name>
        </Folder>
      </Folder>
    </Folder>
  </Document>
</kml>
