<kml xmlns="http://www.opengis.net/kml/2.2" xmlns:atom="http://www.w3.org/2005/Atom" xmlns:gx="http://www.google.com/kml/ext/2.2">
  <Document>
    <Style id="QueryArea">
      <LineStyle>
        <color>ffc0c000</color>
        <width>3</width>
      </LineStyle>
      <PolyStyle>
        <color>80ffffaa</color>
      </PolyStyle>
    </Style>
    <Style id="F3548v21Accepted">
      <LineStyle>
        <color>ff00c000</color>
        <width>3</width>
      </LineStyle>
      <PolyStyle>
        <color>80c0c0c0</color>
      </PolyStyle>
    </Style>
    <Style id="F3548v21Activated">
      <LineStyle>
        <color>ff00c000</color>
        <width>3</width>
      </LineStyle>
      <PolyStyle>
        <color>8000ff00</color>
      </PolyStyle>
    </Style>
    <Style id="F3548v21Nonconforming">
      <LineStyle>
        <color>ff00ffff</color>
        <width>5</width>
      </LineStyle>
      <PolyStyle>
        <color>8000ffff</color>
      </PolyStyle>
    </Style>
    <Style id="F3548v21Contingent">
      <LineStyle>
        <color>ff0000ff</color>
        <width>5</width>
      </LineStyle>
      <PolyStyle>
        <color>80ff0000ff</color>
      </PolyStyle>
    </Style>
    <Style id="F3548v21AcceptedFuture">
      <LineStyle>
        <color>80c0c0c0</color>
        <width>1</width>
      </LineStyle>
      <PolyStyle>
        <color>00000000</color>
      </PolyStyle>
    </Style>
    <Style id="F3548v21ActivatedFuture">
      <LineStyle>
        <color>8040c040</color>
        <width>1</width>
      </LineStyle>
      <PolyStyle>
        <color>00000000</color>
      </PolyStyle>
    </Style>
    <Style id="F3548v21NonconformingFuture">
      <LineStyle>
        <color>8000ffff</color>
        <width>1</width>
      </LineStyle>
      <PolyStyle>
        <color>00000000</color>
      </PolyStyle>
    </Style>
    <Style id="F3548v21ContingentFuture">
      <LineStyle>
        <color>80ff0000ff</color>
        <width>1</width>
      </LineStyle>
      <PolyStyle>
        <color>00000000</color>
      </PolyStyle>
    </Style>
    <Style id="Planned_Nominal">
      <LineStyle>
        <color>ff00c000</color>
        <width>3</width>
      </LineStyle>
      <PolyStyle>
        <color>80808080</color>
      </PolyStyle>
    </Style>
    <Style id="InUse_Nominal">
      <LineStyle>
        <color>ff00c000</color>
        <width>3</width>
      </LineStyle>
      <PolyStyle>
        <color>8000ff00</color>
      </PolyStyle>
    </Style>
    <Style id="InUse_OffNominal">
      <LineStyle>
        <color>ff00ffff</color>
        <width>5</width>
      </LineStyle>
      <PolyStyle>
        <color>8000ff00</color>
      </PolyStyle>
    </Style>
    <Style id="InUse_Contingent">
      <LineStyle>
        <color>ff0000ff</color>
        <width>5</width>
      </LineStyle>
      <PolyStyle>
        <color>8000ff00</color>
      </PolyStyle>
    </Style>
    <Folder>
      <name>Awareness of relevant operational intents</name>
      <Folder>
        <name>Activated operational intent receives notification of relevant intent</name>
        <Folder>
          <name>Tested_uss plans and activates Flight 1</name>
          <Folder>
            <name>E3: uss1_dss astm.f3548.v21.dss.queryOperationalIntentReferences</name>
            <Placemark>
              <name>area_of_interest</name>
              <styleUrl>#QueryArea</styleUrl>
              <description><![CDATA[(no operational intent references found)]]></description>
              <TimeSpan>
                <begin>2025-11-07T08:23:44.591537+00:00</begin>
                <end>2025-11-07T09:08:44.591537+00:00</end>
              </TimeSpan>
              <MultiGeometry>
                <Polygon>
                  <altitudeMode>absolute</altitudeMode>
                  <outerBoundaryIs>
                    <LinearRing>
                      <coordinates>8.49475,47.373490000000004,598.7255342321542 8.49475,47.387190000000004,598.7255342321542 8.50826,47.387190000000004,598.7255342321542 8.50826,47.373490000000004,598.7255342321542</coordinates>
                    </LinearRing>
                  </outerBoundaryIs>
                </Polygon>
                <Polygon>
                  <altitudeMode>absolute</altitudeMode>
                  <outerBoundaryIs>
                    <LinearRing>
                      <coordinates>8.49475,47.373490000000004,683.7255342321542 8.49475,47.387190000000004,683.7255342321542 8.50826,47.387190000000004,683.7255342321542 8.50826,47.373490000000004,683.7255342321542</coordinates>
                    </LinearRing>
                  </outerBoundaryIs>
                </Polygon>
                <Polygon>
                  <altitudeMode>absolute</altitudeMode>
                  <outerBoundaryIs>
                    <LinearRing>
                      <coordinates>8.49475,47.373490000000004,598.7255342321542 8.49475,47.373490000000004,683.7255342321542 8.49475,47.387190000000004,683.7255342321542 8.49475,47.387190000000004,598.7255342321542</coordinates>
                    </LinearRing>
                  </outerBoundaryIs>
                </Polygon>
                <Polygon>
                  <altitudeMode>absolute</altitudeMode>
                  <outerBoundaryIs>
                    <LinearRing>
                      <coordinates>8.49475,47.387190000000004,598.7255342321542 8.49475,47.387190000000004,683.7255342321542 8.50826,47.387190000000004,683.7255342321542 8.50826,47.387190000000004,598.7255342321542</coordinates>
                    </LinearRing>
                  </outerBoundaryIs>
                </Polygon>
                <Polygon>
                  <altitudeMode>absolute</altitudeMode>
                  <outerBoundaryIs>
                    <LinearRing>
                      <coordinates>8.50826,47.387190000000004,598.7255342321542 8.50826,47.387190000000004,683.7255342321542 8.50826,47.373490000000004,683.7255342321542 8.50826,47.373490000000004,598.7255342321542</coordinates>
                    </LinearRing>
                  </outerBoundaryIs>
                </Polygon>
                <Polygon>
                  <altitudeMode>absolute</altitudeMode>
                  <outerBoundaryIs>
                    <LinearRing>
                      <coordinates>8.50826,47.373490000000004,598.7255342321542 8.50826,47.373490000000004,683.7255342321542 8.49475,47.373490000000004,683.7255342321542 8.49475,47.373490000000004,598.7255342321542</coordinates>
                    </LinearRing>
                  </outerBoundaryIs>
                </Polygon>
              </MultiGeometry>
            </Placemark>
          </Folder>
          <Folder>
            <name>E5: uss2_core interuss.automated_testing.flight_planning.v1.UpsertFlightPlan</name>
            <Folder>
              <name>Activity Completed, flight Planned</name>
              <Placemark>
                <name>Volume 0</name>
                <styleUrl>#Planned_Nominal</styleUrl>
                <TimeSpan>
                  <begin>2025-11-07T08:23:44.591537+00:00</begin>
                  <end>2025-11-07T09:08:44.591537+00:00</end>
                </TimeSpan>
                <MultiGeometry>
                  <Polygon>
                    <altitudeMode>absolute</altitudeMode>
                    <outerBoundaryIs>
                      <LinearRing>
                        <coordinates>8.5051,47.3778,598.7248072128685 8.49675,47.38497,598.7248072128685 8.50146,47.387190000000004,598.7248072128685 8.50409,47.38601,598.7248072128685</coordinates>
                      </LinearRing>
                    </outerBoundaryIs>
                  </Polygon>
                  <Polygon>
                    <altitudeMode>absolute</altitudeMode>
                    <outerBoundaryIs>
                      <LinearRing>
                        <coordinates>8.5051,47.3778,683.7248072128685 8.49675,47.38497,683.7248072128685 8.50146,47.387190000000004,683.7248072128685 8.50409,47.38601,683.7248072128685</coordinates>
                      </LinearRing>
                    </outerBoundaryIs>
                  </Polygon>
                  <Polygon>
                    <altitudeMode>absolute</altitudeMode>
                    <outerBoundaryIs>
                      <LinearRing>
                        <coordinates>8.5051,47.3778,598.7248072128685 8.5051,47.3778,683.7248072128685 8.49675,47.38497,683.7248072128685 8.49675,47.38497,598.7248072128685</coordinates>
                      </LinearRing>
                    </outerBoundaryIs>
                  </Polygon>
                  <Polygon>
                    <altitudeMode>absolute</altitudeMode>
                    <outerBoundaryIs>
                      <LinearRing>
                        <coordinates>8.49675,47.38497,598.7248072128685 8.49675,47.38497,683.7248072128685 8.50146,47.387190000000004,683.7248072128685 8.50146,47.387190000000004,598.7248072128685</coordinates>
                      </LinearRing>
                    </outerBoundaryIs>
                  </Polygon>
                  <Polygon>
                    <altitudeMode>absolute</altitudeMode>
                    <outerBoundaryIs>
                      <LinearRing>
                        <coordinates>8.50146,47.387190000000004,598.7248072128685 8.50146,47.387190000000004,683.7248072128685 8.50409,47.38601,683.7248072128685 8.50409,47.38601,598.7248072128685</coordinates>
                      </LinearRing>
                    </outerBoundaryIs>
                  </Polygon>
                  <Polygon>
                    <altitudeMode>absolute</altitudeMode>
                    <outerBoundaryIs>
                      <LinearRing>
                        <coordinates>8.50409,47.38601,598.7248072128685 8.50409,47.38601,683.7248072128685 8.5051,47.3778,683.7248072128685 8.5051,47.3778,598.7248072128685</coordinates>
                      </LinearRing>
                    </outerBoundaryIs>
                  </Polygon>
                </MultiGeometry>
              </Placemark>
            </Folder>
          </Folder>
          <Folder>
            <name>E8: uss1_dss astm.f3548.v21.dss.queryOperationalIntentReferences</name>
            <Placemark>
              <name>area_of_interest</name>
              <styleUrl>#QueryArea</styleUrl>
              <description><![CDATA[<ul><li>fake_uss's Accepted 44f75b26-7c9a-4311-ac12-3db2273f8920[1]</li></ul>]]></description>
              <TimeSpan>
                <begin>2025-11-07T08:23:44.591537+00:00</begin>
                <end>2025-11-07T09:08:44.591537+00:00</end>
              </TimeSpan>
              <MultiGeometry>
                <Polygon>
                  <altitudeMode>absolute</altitudeMode>
                  <outerBoundaryIs>
                    <LinearRing>
                      <coordinates>8.49475,47.373490000000004,598.7255342321542 8.49475,47.387190000000004,598.7255342321542 8.50826,47.387190000000004,598.7255342321542 8.50826,47.373490000000004,598.7255342321542</coordinates>
                    </LinearRing>
                  </outerBoundaryIs>
                </Polygon>
                <Polygon>
                  <altitudeMode>absolute</altitudeMode>
                  <outerBoundaryIs>
                    <LinearRing>
                      <coordinates>8.49475,47.373490000000004,683.7255342321542 8.49475,47.387190000000004,683.7255342321542 8.50826,47.387190000000004,683.7255342321542 8.50826,47.373490000000004,683.7255342321542</coordinates>
                    </LinearRing>
                  </outerBoundaryIs>
                </Polygon>
                <Polygon>
                  <altitudeMode>absolute</altitudeMode>
                  <outerBoundaryIs>
                    <LinearRing>
                      <coordinates>8.49475,47.373490000000004,598.7255342321542 8.49475,47.373490000000004,683.7255342321542 8.49475,47.387190000000004,683.7255342321542 8.49475,47.387190000000004,598.7255342321542</coordinates>
                    </LinearRing>
                  </outerBoundaryIs>
                </Polygon>
                <Polygon>
                  <altitudeMode>absolute</altitudeMode>
                  <outerBoundaryIs>
                    <LinearRing>
                      <coordinates>8.49475,47.387190000000004,598.7255342321542 8.49475,47.387190000000004,683.7255342321542 8.50826,47.387190000000004,683.7255342321542 8.50826,47.387190000000004,598.7255342321542</coordinates>
                    </LinearRing>
                  </outerBoundaryIs>
                </Polygon>
                <Polygon>
                  <altitudeMode>absolute</altitudeMode>
                  <outerBoundaryIs>
                    <LinearRing>
                      <coordinates>8.50826,47.387190000000004,598.7255342321542 8.50826,47.387190000000004,683.7255342321542 8.50826,47.373490000000004,683.7255342321542 8.50826,47.373490000000004,598.7255342321542</coordinates>
                    </LinearRing>
                  </outerBoundaryIs>
                </Polygon>
                <Polygon>
                  <altitudeMode>absolute</altitudeMode>
                  <outerBoundaryIs>
                    <LinearRing>
                      <coordinates>8.50826,47.373490000000004,598.7255342321542 8.50826,47.373490000000004,683.7255342321542 8.49475,47.373490000000004,683.7255342321542 8.49475,47.373490000000004,598.7255342321542</coordinates>
                    </LinearRing>
                  </outerBoundaryIs>
                </Polygon>
              </MultiGeometry>
            </Placemark>
          </Folder>
          <Folder>
            <name>E12: uss2_core astm.f3548.v21.uss.getOperationalIntentDetails</name>
            <Folder>
              <name>fake_uss's P0 Accepted 44f75b26-7c9a-4311-ac12-3db2273f8920[1] @ etVwytx10.JQqkh50mjXoXQuW2rsiOidd5cjQgMXaoc_</name>
              <Placemark>
                <name>Nominal volume 0</name>
                <styleUrl>#F3548v21Accepted</styleUrl>
                <TimeSpan>
                  <begin>2025-11-07T08:20:44+00:00</begin>
                  <end>2025-11-07T09:13:44+00:00</end>
                </TimeSpan>
                <MultiGeometry>
                  <Polygon>
                    <altitudeMode>absolute</altitudeMode>
                    <outerBoundaryIs>
                      <LinearRing>
                        <coordinates>8.495314,47.375625,-47.27582938613049 8.506365,47.375625,-47.27582938613049 8.506365,47.388005,-47.27582938613049 8.495314,47.388005,-47.27582938613049</coordinates>
                      </LinearRing>
                    </outerBoundaryIs>
                  </Polygon>
                  <Polygon>
                    <altitudeMode>absolute</altitudeMode>
                    <outerBoundaryIs>
                      <LinearRing>
                        <coordinates>8.495314,47.375625,758.7241706138695 8.506365,47.375625,758.7241706138695 8.506365,47.388005,758.7241706138695 8.495314,47.388005,758.7241706138695</coordinates>
                      </LinearRing>
                    </outerBoundaryIs>
                  </Polygon>
                  <Polygon>
                    <altitudeMode>absolute</altitudeMode>
                    <outerBoundaryIs>
                      <LinearRing>
                        <coordinates>8.495314,47.375625,-47.27582938613049 8.495314,47.375625,758.7241706138695 8.506365,47.375625,758.7241706138695 8.506365,47.375625,-47.27582938613049</coordinates>
                      </LinearRing>
                    </outerBoundaryIs>
                  </Polygon>
                  <Polygon>
                    <altitudeMode>absolute</altitudeMode>
                    <outerBoundaryIs>
                      <LinearRing>
                        <coordinates>8.506365,47.375625,-47.27582938613049 8.506365,47.375625,758.7241706138695 8.506365,47.388005,758.7241706138695 8.506365,47.388005,-47.27582938613049</coordinates>
                      </LinearRing>
                    </outerBoundaryIs>
                  </Polygon>
                  <Polygon>
                    <altitudeMode>absolute</altitudeMode>
                    <outerBoundaryIs>
                      <LinearRing>
                        <coordinates>8.506365,47.388005,-47.27582938613049 8.506365,47.388005,758.7241706138695 8.495314,47.388005,758.7241706138695 8.495314,47.388005,-47.27582938613049</coordinates>
                      </LinearRing>
                    </outerBoundaryIs>
                  </Polygon>
                  <Polygon>
                    <altitudeMode>absolute</altitudeMode>
                    <outerBoundaryIs>
                      <LinearRing>
                        <coordinates>8.495314,47.388005,-47.27582938613049 8.495314,47.388005,758.7241706138695 8.495314,47.375625,758.7241706138695 8.495314,47.375625,-47.27582938613049</coordinates>
                      </LinearRing>
                    </outerBoundaryIs>
                  </Polygon>
                </MultiGeometry>
              </Placemark>
            </Folder>
          </Folder>
          <Folder>
            <name>E18: uss1_dss astm.f3548.v21.dss.queryOperationalIntentReferences</name>
            <Placemark>
              <name>area_of_interest</name>
              <styleUrl>#QueryArea</styleUrl>
              <description><![CDATA[<ul><li>fake_uss's Accepted 44f75b26-7c9a-4311-ac12-3db2273f8920[1]</li></ul>]]></description>
              <TimeSpan>
                <begin>2025-11-07T08:23:44.591537+00:00</begin>
                <end>2025-11-07T09:08:44.591537+00:00</end>
              </TimeSpan>
              <MultiGeometry>
                <Polygon>
                  <altitudeMode>absolute</altitudeMode>
                  <outerBoundaryIs>
                    <LinearRing>
                      <coordinates>8.49475,47.373490000000004,598.7255342321542 8.49475,47.387190000000004,598.7255342321542 8.50826,47.387190000000004,598.7255342321542 8.50826,47.373490000000004,598.7255342321542</coordinates>
                    </LinearRing>
                  </outerBoundaryIs>
                </Polygon>
                <Polygon>
                  <altitudeMode>absolute</altitudeMode>
                  <outerBoundaryIs>
                    <LinearRing>
                      <coordinates>8.49475,47.373490000000004,683.7255342321542 8.49475,47.387190000000004,683.7255342321542 8.50826,47.387190000000004,683.7255342321542 8.50826,47.373490000000004,683.7255342321542</coordinates>
                    </LinearRing>
                  </outerBoundaryIs>
                </Polygon>
                <Polygon>
                  <altitudeMode>absolute</altitudeMode>
                  <outerBoundaryIs>
                    <LinearRing>
                      <coordinates>8.49475,47.373490000000004,598.7255342321542 8.49475,47.373490000000004,683.7255342321542 8.49475,47.387190000000004,683.7255342321542 8.49475,47.387190000000004,598.7255342321542</coordinates>
                    </LinearRing>
                  </outerBoundaryIs>
                </Polygon>
                <Polygon>
                  <altitudeMode>absolute</altitudeMode>
                  <outerBoundaryIs>
                    <LinearRing>
                      <coordinates>8.49475,47.387190000000004,598.7255342321542 8.49475,47.387190000000004,683.7255342321542 8.50826,47.387190000000004,683.7255342321542 8.50826,47.387190000000004,598.7255342321542</coordinates>
                    </LinearRing>
                  </outerBoundaryIs>
                </Polygon>
                <Polygon>
                  <altitudeMode>absolute</altitudeMode>
                  <outerBoundaryIs>
                    <LinearRing>
                      <coordinates>8.50826,47.387190000000004,598.7255342321542 8.50826,47.387190000000004,683.7255342321542 8.50826,47.373490000000004,683.7255342321542 8.50826,47.373490000000004,598.7255342321542</coordinates>
                    </LinearRing>
                  </outerBoundaryIs>
                </Polygon>
                <Polygon>
                  <altitudeMode>absolute</altitudeMode>
                  <outerBoundaryIs>
                    <LinearRing>
                      <coordinates>8.50826,47.373490000000004,598.7255342321542 8.50826,47.373490000000004,683.7255342321542 8.49475,47.373490000000004,683.7255342321542 8.49475,47.373490000000004,598.7255342321542</coordinates>
                    </LinearRing>
                  </outerBoundaryIs>
                </Polygon>
              </MultiGeometry>
            </Placemark>
          </Folder>
          <Folder>
            <name>E20: uss2_core interuss.automated_testing.flight_planning.v1.UpsertFlightPlan</name>
            <Folder>
              <name>Activity Completed, flight OkToFly</name>
              <Placemark>
                <name>Volume 0</name>
                <styleUrl>#InUse_Nominal</styleUrl>
                <TimeSpan>
                  <begin>2025-11-07T08:23:44.591537+00:00</begin>
                  <end>2025-11-07T09:08:44.591537+00:00</end>
                </TimeSpan>
                <MultiGeometry>
                  <Polygon>
                    <altitudeMode>absolute</altitudeMode>
                    <outerBoundaryIs>
                      <LinearRing>
                        <coordinates>8.5051,47.3778,598.7248072128685 8.49675,47.38497,598.7248072128685 8.50146,47.387190000000004,598.7248072128685 8.50409,47.38601,598.7248072128685</coordinates>
                      </LinearRing>
                    </outerBoundaryIs>
                  </Polygon>
                  <Polygon>
                    <altitudeMode>absolute</altitudeMode>
                    <outerBoundaryIs>
                      <LinearRing>
                        <coordinates>8.5051,47.3778,683.7248072128685 8.49675,47.38497,683.7248072128685 8.50146,47.387190000000004,683.7248072128685 8.50409,47.38601,683.7248072128685</coordinates>
                      </LinearRing>
                    </outerBoundaryIs>
                  </Polygon>
                  <Polygon>
                    <altitudeMode>absolute</altitudeMode>
                    <outerBoundaryIs>
                      <LinearRing>
                        <coordinates>8.5051,47.3778,598.7248072128685 8.5051,47.3778,683.7248072128685 8.49675,47.38497,683.7248072128685 8.49675,47.38497,598.7248072128685</coordinates>
                      </LinearRing>
                    </outerBoundaryIs>
                  </Polygon>
                  <Polygon>
                    <altitudeMode>absolute</altitudeMode>
                    <outerBoundaryIs>
                      <LinearRing>
                        <coordinates>8.49675,47.38497,598.7248072128685 8.49675,47.38497,683.7248072128685 8.50146,47.387190000000004,683.7248072128685 8.50146,47.387190000000004,598.7248072128685</coordinates>
                      </LinearRing>
                    </outerBoundaryIs>
                  </Polygon>
                  <Polygon>
                    <altitudeMode>absolute</altitudeMode>
                    <outerBoundaryIs>
                      <LinearRing>
                        <coordinates>8.50146,47.387190000000004,598.7248072128685 8.50146,47.387190000000004,683.7248072128685 8.50409,47.38601,683.7248072128685 8.50409,47.38601,598.7248072128685</coordinates>
                      </LinearRing>
                    </outerBoundaryIs>
                  </Polygon>
                  <Polygon>
                    <altitudeMode>absolute</altitudeMode>
                    <outerBoundaryIs>
                      <LinearRing>
                        <coordinates>8.50409,47.38601,598.7248072128685 8.50409,47.38601,683.7248072128685 8.5051,47.3778,683.7248072128685 8.5051,47.3778,598.7248072128685</coordinates>
                      </LinearRing>
                    </outerBoundaryIs>
                  </Polygon>
                </MultiGeometry>
              </Placemark>
            </Folder>
          </Folder>
          <Folder>
            <name>E23: uss1_dss astm.f3548.v21.dss.queryOperationalIntentReferences</name>
            <Placemark>
              <name>area_of_interest</name>
              <styleUrl>#QueryArea</styleUrl>
              <description><![CDATA[<ul><li>fake_uss's Activated fa3e0a5c-c1c9-4429-b4be-ee45db423393[2]</li></ul>]]></description>
              <TimeSpan>
                <begin>2025-11-07T08:23:44.591537+00:00</begin>
                <end>2025-11-07T09:08:44.591537+00:00</end>
              </TimeSpan>
              <MultiGeometry>
                <Polygon>
                  <altitudeMode>absolute</altitudeMode>
                  <outerBoundaryIs>
                    <LinearRing>
                      <coordinates>8.49475,47.373490000000004,598.7255342321542 8.49475,47.387190000000004,598.7255342321542 8.50826,47.387190000000004,598.7255342321542 8.50826,47.373490000000004,598.7255342321542</coordinates>
                    </LinearRing>
                  </outerBoundaryIs>
                </Polygon>
                <Polygon>
                  <altitudeMode>absolute</altitudeMode>
                  <outerBoundaryIs>
                    <LinearRing>
                      <coordinates>8.49475,47.373490000000004,683.7255342321542 8.49475,47.387190000000004,683.7255342321542 8.50826,47.387190000000004,683.7255342321542 8.50826,47.373490000000004,683.7255342321542</coordinates>
                    </LinearRing>
                  </outerBoundaryIs>
                </Polygon>
                <Polygon>
                  <altitudeMode>absolute</altitudeMode>
                  <outerBoundaryIs>
                    <LinearRing>
                      <coordinates>8.49475,47.373490000000004,598.7255342321542 8.49475,47.373490000000004,683.7255342321542 8.49475,47.387190000000004,683.7255342321542 8.49475,47.387190000000004,598.7255342321542</coordinates>
                    </LinearRing>
                  </outerBoundaryIs>
                </Polygon>
                <Polygon>
                  <altitudeMode>absolute</altitudeMode>
                  <outerBoundaryIs>
                    <LinearRing>
                      <coordinates>8.49475,47.387190000000004,598.7255342321542 8.49475,47.387190000000004,683.7255342321542 8.50826,47.387190000000004,683.7255342321542 8.50826,47.387190000000004,598.7255342321542</coordinates>
                    </LinearRing>
                  </outerBoundaryIs>
                </Polygon>
                <Polygon>
                  <altitudeMode>absolute</altitudeMode>
                  <outerBoundaryIs>
                    <LinearRing>
                      <coordinates>8.50826,47.387190000000004,598.7255342321542 8.50826,47.387190000000004,683.7255342321542 8.50826,47.373490000000004,683.7255342321542 8.50826,47.373490000000004,598.7255342321542</coordinates>
                    </LinearRing>
                  </outerBoundaryIs>
                </Polygon>
                <Polygon>
                  <altitudeMode>absolute</altitudeMode>
                  <outerBoundaryIs>
                    <LinearRing>
                      <coordinates>8.50826,47.373490000000004,598.7255342321542 8.50826,47.373490000000004,683.7255342321542 8.49475,47.373490000000004,683.7255342321542 8.49475,47.373490000000004,598.7255342321542</coordinates>
                    </LinearRing>
                  </outerBoundaryIs>
                </Polygon>
              </MultiGeometry>
            </Placemark>
          </Folder>
          <Folder>
            <name>E27: uss2_core astm.f3548.v21.uss.getOperationalIntentDetails</name>
            <Folder>
              <name>fake_uss's P0 Activated fa3e0a5c-c1c9-4429-b4be-ee45db423393[2] @ Mdvoeba.7vwApOZ851zYWLJtYXKwasZ-ofU3mAL26Co_</name>
              <Placemark>
                <name>Nominal volume 0</name>
                <styleUrl>#F3548v21Activated</styleUrl>
                <TimeSpan>
                  <begin>2025-11-07T08:20:44+00:00</begin>
                  <end>2025-11-07T09:13:44+00:00</end>
                </TimeSpan>
                <MultiGeometry>
                  <Polygon>
                    <altitudeMode>absolute</altitudeMode>
                    <outerBoundaryIs>
                      <LinearRing>
                        <coordinates>8.495314,47.375625,-47.27582938613049 8.506365,47.375625,-47.27582938613049 8.506365,47.388005,-47.27582938613049 8.495314,47.388005,-47.27582938613049</coordinates>
                      </LinearRing>
                    </outerBoundaryIs>
                  </Polygon>
                  <Polygon>
                    <altitudeMode>absolute</altitudeMode>
                    <outerBoundaryIs>
                      <LinearRing>
                        <coordinates>8.495314,47.375625,758.7241706138695 8.506365,47.375625,758.7241706138695 8.506365,47.388005,758.7241706138695 8.495314,47.388005,758.7241706138695</coordinates>
                      </LinearRing>
                    </outerBoundaryIs>
                  </Polygon>
                  <Polygon>
                    <altitudeMode>absolute</altitudeMode>
                    <outerBoundaryIs>
                      <LinearRing>
                        <coordinates>8.495314,47.375625,-47.27582938613049 8.495314,47.375625,758.7241706138695 8.506365,47.375625,758.7241706138695 8.506365,47.375625,-47.27582938613049</coordinates>
                      </LinearRing>
                    </outerBoundaryIs>
                  </Polygon>
                  <Polygon>
                    <altitudeMode>absolute</altitudeMode>
                    <outerBoundaryIs>
                      <LinearRing>
                        <coordinates>8.506365,47.375625,-47.27582938613049 8.506365,47.375625,758.7241706138695 8.506365,47.388005,758.7241706138695 8.506365,47.388005,-47.27582938613049</coordinates>
                      </LinearRing>
                    </outerBoundaryIs>
                  </Polygon>
                  <Polygon>
                    <altitudeMode>absolute</altitudeMode>
                    <outerBoundaryIs>
                      <LinearRing>
                        <coordinates>8.506365,47.388005,-47.27582938613049 8.506365,47.388005,758.7241706138695 8.495314,47.388005,758.7241706138695 8.495314,47.388005,-47.27582938613049</coordinates>
                      </LinearRing>
                    </outerBoundaryIs>
                  </Polygon>
                  <Polygon>
                    <altitudeMode>absolute</altitudeMode>
                    <outerBoundaryIs>
                      <LinearRing>
                        <coordinates>8.495314,47.388005,-47.27582938613049 8.495314,47.388005,758.7241706138695 8.495314,47.375625,758.7241706138695 8.495314,47.375625,-47.27582938613049</coordinates>
                      </LinearRing>
                    </outerBoundaryIs>
                  </Polygon>
                </MultiGeometry>
              </Placemark>
            </Folder>
          </Folder>
        </Folder>
        <Folder>
          <name>Mock_uss plans Flight 2</name>
          <Folder>
            <name>E33: uss1_dss astm.f3548.v21.dss.queryOperationalIntentReferences</name>
            <Placemark>
              <name>area_of_interest</name>
              <styleUrl>#QueryArea</styleUrl>
              <description><![CDATA[<ul><li>fake_uss's Activated fa3e0a5c-c1c9-4429-b4be-ee45db423393[2]</li></ul>]]></description>
              <TimeSpan>
                <begin>2025-11-07T08:23:44.591537+00:00</begin>
                <end>2025-11-07T09:08:44.591537+00:00</end>
              </TimeSpan>
              <MultiGeometry>
                <Polygon>
                  <altitudeMode>absolute</altitudeMode>
                  <outerBoundaryIs>
                    <LinearRing>
                      <coordinates>8.49475,47.373490000000004,598.7255342321542 8.49475,47.387190000000004,598.7255342321542 8.50826,47.387190000000004,598.7255342321542 8.50826,47.373490000000004,598.7255342321542</coordinates>
                    </LinearRing>
                  </outerBoundaryIs>
                </Polygon>
                <Polygon>
                  <altitudeMode>absolute</altitudeMode>
                  <outerBoundaryIs>
                    <LinearRing>
                      <coordinates>8.49475,47.373490000000004,683.7255342321542 8.49475,47.387190000000004,683.7255342321542 8.50826,47.387190000000004,683.7255342321542 8.50826,47.373490000000004,683.7255342321542</coordinates>
                    </LinearRing>
                  </outerBoundaryIs>
                </Polygon>
                <Polygon>
                  <altitudeMode>absolute</altitudeMode>
                  <outerBoundaryIs>
                    <LinearRing>
                      <coordinates>8.49475,47.373490000000004,598.7255342321542 8.49475,47.373490000000004,683.7255342321542 8.49475,47.387190000000004,683.7255342321542 8.49475,47.387190000000004,598.7255342321542</coordinates>
                    </LinearRing>
                  </outerBoundaryIs>
                </Polygon>
                <Polygon>
                  <altitudeMode>absolute</altitudeMode>
                  <outerBoundaryIs>
                    <LinearRing>
                      <coordinates>8.49475,47.387190000000004,598.7255342321542 8.49475,47.387190000000004,683.7255342321542 8.50826,47.387190000000004,683.7255342321542 8.50826,47.387190000000004,598.7255342321542</coordinates>
                    </LinearRing>
                  </outerBoundaryIs>
                </Polygon>
                <Polygon>
                  <altitudeMode>absolute</altitudeMode>
                  <outerBoundaryIs>
                    <LinearRing>
                      <coordinates>8.50826,47.387190000000004,598.7255342321542 8.50826,47.387190000000004,683.7255342321542 8.50826,47.373490000000004,683.7255342321542 8.50826,47.373490000000004,598.7255342321542</coordinates>
                    </LinearRing>
                  </outerBoundaryIs>
                </Polygon>
                <Polygon>
                  <altitudeMode>absolute</altitudeMode>
                  <outerBoundaryIs>
                    <LinearRing>
                      <coordinates>8.50826,47.373490000000004,598.7255342321542 8.50826,47.373490000000004,683.7255342321542 8.49475,47.373490000000004,683.7255342321542 8.49475,47.373490000000004,598.7255342321542</coordinates>
                    </LinearRing>
                  </outerBoundaryIs>
                </Polygon>
              </MultiGeometry>
            </Placemark>
          </Folder>
          <Folder>
            <name>E35: mock_uss interuss.automated_testing.flight_planning.v1.UpsertFlightPlan</name>
            <Folder>
              <name>Activity Rejected, flight NotPlanned</name>
              <Placemark>
                <name>Volume 0</name>
                <styleUrl>#Planned_Nominal</styleUrl>
                <TimeSpan>
                  <begin>2025-11-07T08:23:44.591537+00:00</begin>
                  <end>2025-11-07T09:08:44.591537+00:00</end>
                </TimeSpan>
                <MultiGeometry>
                  <Polygon>
                    <altitudeMode>absolute</altitudeMode>
                    <outerBoundaryIs>
                      <LinearRing>
                        <coordinates>8.50445,47.3855,607.7282411635941 8.50826,47.38376,607.7282411635941 8.505690000000001,47.373490000000004,607.7282411635941 8.49475,47.38533,607.7282411635941 8.505230000000001,47.37755,607.7282411635941</coordinates>
                      </LinearRing>
                    </outerBoundaryIs>
                  </Polygon>
                  <Polygon>
                    <altitudeMode>absolute</altitudeMode>
                    <outerBoundaryIs>
                      <LinearRing>
                        <coordinates>8.50445,47.3855,665.7282411635941 8.50826,47.38376,665.7282411635941 8.505690000000001,47.373490000000004,665.7282411635941 8.49475,47.38533,665.7282411635941 8.505230000000001,47.37755,665.7282411635941</coordinates>
                      </LinearRing>
                    </outerBoundaryIs>
                  </Polygon>
                  <Polygon>
                    <altitudeMode>absolute</altitudeMode>
                    <outerBoundaryIs>
                      <LinearRing>
                        <coordinates>8.50445,47.3855,607.7282411635941 8.50445,47.3855,665.7282411635941 8.50826,47.38376,665.7282411635941 8.50826,47.38376,607.7282411635941</coordinates>
                      </LinearRing>
                    </outerBoundaryIs>
                  </Polygon>
                  <Polygon>
                    <altitudeMode>absolute</altitudeMode>
                    <outerBoundaryIs>
                      <LinearRing>
                        <coordinates>8.50826,47.38376,607.7282411635941 8.50826,47.38376,665.7282411635941 8.505690000000001,47.373490000000004,665.7282411635941 8.505690000000001,47.373490000000004,607.7282411635941</coordinates>
                      </LinearRing>
                    </outerBoundaryIs>
                  </Polygon>
                  <Polygon>
                    <altitudeMode>absolute</altitudeMode>
                    <outerBoundaryIs>
                      <LinearRing>
                        <coordinates>8.505690000000001,47.373490000000004,607.7282411635941 8.505690000000001,47.373490000000004,665.7282411635941 8.49475,47.38533,665.7282411635941 8.49475,47.38533,607.7282411635941</coordinates>
                      </LinearRing>
                    </outerBoundaryIs>
                  </Polygon>
                  <Polygon>
                    <altitudeMode>absolute</altitudeMode>
                    <outerBoundaryIs>
                      <LinearRing>
                        <coordinates>8.49475,47.38533,607.7282411635941 8.49475,47.38533,665.7282411635941 8.505230000000001,47.37755,665.7282411635941 8.505230000000001,47.37755,607.7282411635941</coordinates>
                      </LinearRing>
                    </outerBoundaryIs>
                  </Polygon>
                  <Polygon>
                    <altitudeMode>absolute</altitudeMode>
                    <outerBoundaryIs>
                      <LinearRing>
                        <coordinates>8.505230000000001,47.37755,607.7282411635941 8.505230000000001,47.37755,665.7282411635941 8.50445,47.3855,665.7282411635941 8.50445,47.3855,607.7282411635941</coordinates>
                      </LinearRing>
                    </outerBoundaryIs>
                  </Polygon>
                </MultiGeometry>
              </Placemark>
            </Folder>
          </Folder>
        </Folder>
      </Folder>
      <Folder>
        <name/>
        <Folder>
          <name>Cleanup</name>
        </Folder>
      </Folder>
    </Folder>
  </Document>
</kml>
